{
"type": "FeatureCollection",
"name": "admin_boundary",
"crs": { "type": "name", "properties": { "name": "urn:ogc:def:crs:OGC:1.3:CRS84" } },
"features": [
{ "type": "Feature", "properties": { "STATEFP": "42", "PLACEFP": "60000", "GEOID": "4260000", "NAME": "Philadelphia", "NAMELSAD": "Philadelphia city", "ALAND": 347900745, "AWATER": 20969567 }, "geometry": { "type": "Polygon", "coordinates": [ [ [ -75.280266, 39.974964 ], [ -75.27951, 39.975349 ], [ -75.279137, 39.975552 ], [ -75.278938, 39.975654 ], [ -75.278186, 39.976041 ], [ -75.277669, 39.976312 ], [ -75.276482, 39.976959 ], [ -75.276131, 39.977127 ], [ -75.275871, 39.977245 ], [ -75.275468, 39.977429 ], [ -75.275284, 39.977512 ], [ -75.273552, 39.978279 ], [ -75.273154, 39.978455 ], [ -75.273026, 39.978512 ], [ -75.272255, 39.978855 ], [ -75.27153, 39.979176 ], [ -75.271309, 39.979275 ], [ -75.269257, 39.980186 ], [ -75.267973, 39.980757 ], [ -75.267398, 39.981014 ], [ -75.26725, 39.981079 ], [ -75.266251, 39.981525 ], [ -75.265566, 39.981832 ], [ -75.265511, 39.981857 ], [ -75.264748, 39.982193 ], [ -75.264386, 39.982356 ], [ -75.264351, 39.982372 ], [ -75.263687, 39.982658 ], [ -75.262946, 39.983045 ], [ -75.262794, 39.983124 ], [ -75.262512, 39.98328 ], [ -75.26078, 39.984241 ], [ -75.260689, 39.984295 ], [ -75.259476, 39.984955 ], [ -75.259284, 39.985073 ], [ -75.258842, 39.985348 ], [ -75.258705, 39.985428 ], [ -75.258545, 39.985527 ], [ -75.25695, 39.98671 ], [ -75.256874, 39.986771 ], [ -75.256287, 39.98719 ], [ -75.256119, 39.987301 ], [ -75.255676, 39.987499 ], [ -75.253999, 39.988304 ], [ -75.2516, 39.989429 ], [ -75.251546, 39.989454 ], [ -75.251438, 39.989504 ], [ -75.250786, 39.989803 ], [ -75.250336, 39.990017 ], [ -75.25013, 39.990116 ], [ -75.25, 39.99018 ], [ -75.249768, 39.99029 ], [ -75.249214, 39.990547 ], [ -75.247948, 39.991138 ], [ -75.245689, 39.992191 ], [ -75.243908, 39.993043 ], [ -75.243816, 39.993086 ], [ -75.24165, 39.994105 ], [ -75.240785, 39.99451 ], [ -75.239005, 39.995344 ], [ -75.238977, 39.995358 ], [ -75.237997, 39.995817 ], [ -75.237343, 39.996123 ], [ -75.237331, 39.996128 ], [ -75.23612, 39.996689 ], [ -75.235298, 39.99707 ], [ -75.234413, 39.997488 ], [ -75.234302, 39.997541 ], [ -75.234184, 39.997597 ], [ -75.234152, 39.997612 ], [ -75.233215, 39.998058 ], [ -75.232148, 39.998551 ], [ -75.232124, 39.998562 ], [ -75.232056, 39.998589 ], [ -75.230896, 39.99913 ], [ -75.230441, 39.999344 ], [ -75.229453, 39.999811 ], [ -75.228881, 40.000079 ], [ -75.228738, 40.000144 ], [ -75.228375, 40.000317 ], [ -75.22776, 40.000599 ], [ -75.227462, 40.000746 ], [ -75.227051, 40.000938 ], [ -75.226402, 40.001255 ], [ -75.223618, 40.002583 ], [ -75.220665, 40.003944 ], [ -75.219231, 40.004642 ], [ -75.218732, 40.004888 ], [ -75.218361, 40.00507 ], [ -75.216017, 40.006134 ], [ -75.215805, 40.006229 ], [ -75.213745, 40.00716 ], [ -75.211666, 40.008155 ], [ -75.211548, 40.008213 ], [ -75.21077, 40.008583 ], [ -75.210619, 40.008652 ], [ -75.20924, 40.009371 ], [ -75.2084, 40.009836 ], [ -75.208221, 40.009947 ], [ -75.20801, 40.010077 ], [ -75.207674, 40.010286 ], [ -75.207525, 40.010378 ], [ -75.207376, 40.01048 ], [ -75.207281, 40.010545 ], [ -75.207279, 40.010587 ], [ -75.207238, 40.010686 ], [ -75.207157, 40.010801 ], [ -75.2071, 40.010887 ], [ -75.206986, 40.010977 ], [ -75.206558, 40.011252 ], [ -75.205978, 40.011723 ], [ -75.206071, 40.011783 ], [ -75.206138, 40.011825 ], [ -75.206286, 40.011923 ], [ -75.206405, 40.012002 ], [ -75.207599, 40.012719 ], [ -75.207628, 40.012736 ], [ -75.207728, 40.012805 ], [ -75.208008, 40.012997 ], [ -75.208649, 40.013439 ], [ -75.210007, 40.014107 ], [ -75.212219, 40.015461 ], [ -75.213462, 40.016561 ], [ -75.213489, 40.016585 ], [ -75.213637, 40.016718 ], [ -75.21403, 40.017152 ], [ -75.214631, 40.017835 ], [ -75.215055, 40.018352 ], [ -75.215329, 40.018662 ], [ -75.215483, 40.018828 ], [ -75.215615, 40.018965 ], [ -75.21575, 40.0191 ], [ -75.215863, 40.019207 ], [ -75.216006, 40.019335 ], [ -75.216276, 40.019564 ], [ -75.217816, 40.020738 ], [ -75.218056, 40.020943 ], [ -75.218192, 40.021012 ], [ -75.218469, 40.021208 ], [ -75.218888, 40.021493 ], [ -75.21908, 40.021616 ], [ -75.219247, 40.021716 ], [ -75.219397, 40.021799 ], [ -75.219503, 40.021854 ], [ -75.219617, 40.021908 ], [ -75.21981, 40.021992 ], [ -75.219889, 40.022022 ], [ -75.220009, 40.022065 ], [ -75.220131, 40.022104 ], [ -75.220255, 40.02214 ], [ -75.220422, 40.022186 ], [ -75.220592, 40.022228 ], [ -75.22119, 40.022364 ], [ -75.221445, 40.022425 ], [ -75.221576, 40.02245 ], [ -75.221715, 40.022472 ], [ -75.221893, 40.02253 ], [ -75.222153, 40.022614 ], [ -75.223017, 40.023227 ], [ -75.223694, 40.023712 ], [ -75.223945, 40.023809 ], [ -75.225191, 40.024459 ], [ -75.226308, 40.025092 ], [ -75.226513, 40.025197 ], [ -75.226652, 40.025267 ], [ -75.227952, 40.025934 ], [ -75.228004, 40.025963 ], [ -75.228149, 40.026031 ], [ -75.22818, 40.026047 ], [ -75.228218, 40.026066 ], [ -75.228249, 40.026081 ], [ -75.229678, 40.026793 ], [ -75.230745, 40.027312 ], [ -75.230924, 40.027425 ], [ -75.231026, 40.027489 ], [ -75.231178, 40.02755 ], [ -75.231702, 40.027831 ], [ -75.231987, 40.027995 ], [ -75.232042, 40.028037 ], [ -75.232225, 40.028141 ], [ -75.232401, 40.028254 ], [ -75.232601, 40.02839 ], [ -75.232763, 40.028506 ], [ -75.232919, 40.028626 ], [ -75.233071, 40.02875 ], [ -75.233884, 40.029476 ], [ -75.234031, 40.029604 ], [ -75.23409, 40.02965 ], [ -75.23418, 40.02973 ], [ -75.234334, 40.029853 ], [ -75.234461, 40.029948 ], [ -75.234765, 40.030162 ], [ -75.235059, 40.030353 ], [ -75.2353, 40.030504 ], [ -75.236208, 40.031054 ], [ -75.236588, 40.03129 ], [ -75.237365, 40.031799 ], [ -75.237674, 40.032003 ], [ -75.237978, 40.032203 ], [ -75.238396, 40.032495 ], [ -75.239231, 40.033061 ], [ -75.239703, 40.033375 ], [ -75.23987, 40.033489 ], [ -75.240097, 40.033652 ], [ -75.240283, 40.033798 ], [ -75.2404, 40.033899 ], [ -75.240485, 40.033978 ], [ -75.240565, 40.034058 ], [ -75.240668, 40.034169 ], [ -75.240766, 40.034283 ], [ -75.24086, 40.034399 ], [ -75.241202, 40.034841 ], [ -75.241295, 40.034958 ], [ -75.241417, 40.035101 ], [ -75.24152, 40.035212 ], [ -75.241656, 40.035345 ], [ -75.241802, 40.035473 ], [ -75.241987, 40.035622 ], [ -75.24218, 40.035764 ], [ -75.242414, 40.035923 ], [ -75.242688, 40.036096 ], [ -75.24297, 40.036262 ], [ -75.243258, 40.036421 ], [ -75.243662, 40.036633 ], [ -75.244105, 40.036861 ], [ -75.244218, 40.036916 ], [ -75.244412, 40.037003 ], [ -75.244932, 40.037217 ], [ -75.245048, 40.037268 ], [ -75.24524, 40.037363 ], [ -75.245598, 40.037655 ], [ -75.245903, 40.037996 ], [ -75.24617, 40.03829 ], [ -75.246674, 40.039168 ], [ -75.247, 40.039738 ], [ -75.247322, 40.040096 ], [ -75.247919, 40.040762 ], [ -75.249039, 40.041848 ], [ -75.249181, 40.041951 ], [ -75.249349, 40.042073 ], [ -75.250334, 40.042789 ], [ -75.250986, 40.043263 ], [ -75.251222, 40.043447 ], [ -75.251298, 40.043505 ], [ -75.251361, 40.043554 ], [ -75.252882, 40.044733 ], [ -75.254226, 40.045689 ], [ -75.254318, 40.045755 ], [ -75.254678, 40.045924 ], [ -75.255098, 40.046122 ], [ -75.255893, 40.046497 ], [ -75.257655, 40.047611 ], [ -75.259621, 40.049238 ], [ -75.261097, 40.050671 ], [ -75.262677, 40.052304 ], [ -75.264431, 40.054094 ], [ -75.26386, 40.054557 ], [ -75.263811, 40.054602 ], [ -75.263596, 40.05481 ], [ -75.263519, 40.054871 ], [ -75.2635, 40.054888 ], [ -75.26324, 40.055128 ], [ -75.260551, 40.057603 ], [ -75.256707, 40.061142 ], [ -75.256683, 40.061163 ], [ -75.256559, 40.061158 ], [ -75.256422, 40.0612 ], [ -75.255886, 40.061673 ], [ -75.254886, 40.062645 ], [ -75.254424, 40.063094 ], [ -75.254356, 40.06318 ], [ -75.254343, 40.063313 ], [ -75.252209, 40.065278 ], [ -75.245857, 40.071127 ], [ -75.243458, 40.073334 ], [ -75.243288, 40.073494 ], [ -75.243214, 40.073558 ], [ -75.243133, 40.073628 ], [ -75.241277, 40.075446 ], [ -75.240942, 40.075758 ], [ -75.240869, 40.07583 ], [ -75.240658, 40.07604 ], [ -75.240382, 40.076336 ], [ -75.240121, 40.076592 ], [ -75.239984, 40.076716 ], [ -75.239632, 40.077035 ], [ -75.239349, 40.077309 ], [ -75.238197, 40.078464 ], [ -75.238088, 40.078572 ], [ -75.235767, 40.080852 ], [ -75.234456, 40.082139 ], [ -75.232952, 40.083618 ], [ -75.232908, 40.083665 ], [ -75.232596, 40.083998 ], [ -75.231851, 40.084726 ], [ -75.231721, 40.084852 ], [ -75.230929, 40.085628 ], [ -75.2305, 40.086022 ], [ -75.229772, 40.086758 ], [ -75.229612, 40.086922 ], [ -75.229581, 40.086953 ], [ -75.229061, 40.087469 ], [ -75.228974, 40.087556 ], [ -75.22869, 40.087839 ], [ -75.228277, 40.088251 ], [ -75.227882, 40.088642 ], [ -75.227829, 40.088696 ], [ -75.227776, 40.088745 ], [ -75.227707, 40.088818 ], [ -75.225182, 40.091347 ], [ -75.22361, 40.092907 ], [ -75.22242, 40.092232 ], [ -75.221573, 40.091755 ], [ -75.221222, 40.091557 ], [ -75.220305, 40.09103 ], [ -75.220234, 40.09099 ], [ -75.220056, 40.090889 ], [ -75.21965, 40.090654 ], [ -75.218001, 40.089705 ], [ -75.217964, 40.089684 ], [ -75.216798, 40.089015 ], [ -75.216782, 40.089005 ], [ -75.216696, 40.088955 ], [ -75.215172, 40.088074 ], [ -75.214348, 40.087605 ], [ -75.21357, 40.087154 ], [ -75.213388, 40.087042 ], [ -75.213302, 40.086963 ], [ -75.213198, 40.086865 ], [ -75.21247, 40.086066 ], [ -75.212375, 40.085995 ], [ -75.212194, 40.085971 ], [ -75.212111, 40.085962 ], [ -75.212007, 40.085968 ], [ -75.211928, 40.086006 ], [ -75.211868, 40.086086 ], [ -75.21172, 40.086012 ], [ -75.211525, 40.085915 ], [ -75.211456, 40.085883 ], [ -75.210449, 40.085419 ], [ -75.210388, 40.085392 ], [ -75.20977, 40.085133 ], [ -75.209396, 40.084927 ], [ -75.20874, 40.084435 ], [ -75.208412, 40.084175 ], [ -75.20784, 40.083778 ], [ -75.207649, 40.083668 ], [ -75.206711, 40.083214 ], [ -75.206322, 40.082993 ], [ -75.204865, 40.082157 ], [ -75.204716, 40.082071 ], [ -75.204147, 40.081741 ], [ -75.202652, 40.080894 ], [ -75.200928, 40.079899 ], [ -75.200378, 40.07959 ], [ -75.198492, 40.078507 ], [ -75.198334, 40.078415 ], [ -75.197721, 40.078061 ], [ -75.197601, 40.077991 ], [ -75.196419, 40.077305 ], [ -75.195938, 40.077034 ], [ -75.194992, 40.076496 ], [ -75.19174, 40.074652 ], [ -75.190831, 40.074114 ], [ -75.189203, 40.073174 ], [ -75.188866, 40.072971 ], [ -75.18875, 40.072908 ], [ -75.188461, 40.07275 ], [ -75.187065, 40.074177 ], [ -75.186096, 40.075123 ], [ -75.185988, 40.07523 ], [ -75.185837, 40.075378 ], [ -75.185379, 40.075821 ], [ -75.185036, 40.076153 ], [ -75.184952, 40.076237 ], [ -75.183399, 40.077789 ], [ -75.183113, 40.078064 ], [ -75.182898, 40.078276 ], [ -75.182617, 40.078552 ], [ -75.182053, 40.079102 ], [ -75.181819, 40.079329 ], [ -75.181473, 40.07967 ], [ -75.180901, 40.080219 ], [ -75.180792, 40.080325 ], [ -75.180583, 40.08053 ], [ -75.180275, 40.08083 ], [ -75.180019, 40.081075 ], [ -75.179756, 40.081333 ], [ -75.179214, 40.081867 ], [ -75.178711, 40.082367 ], [ -75.178223, 40.082855 ], [ -75.177696, 40.083378 ], [ -75.176481, 40.084607 ], [ -75.176438, 40.084649 ], [ -75.17617, 40.08449 ], [ -75.175873, 40.084309 ], [ -75.175331, 40.083988 ], [ -75.175072, 40.083835 ], [ -75.174782, 40.083664 ], [ -75.174156, 40.083294 ], [ -75.173592, 40.082958 ], [ -75.172951, 40.082581 ], [ -75.171906, 40.081987 ], [ -75.171717, 40.08188 ], [ -75.171661, 40.081848 ], [ -75.171601, 40.081813 ], [ -75.171348, 40.081664 ], [ -75.169914, 40.080818 ], [ -75.168243, 40.079834 ], [ -75.167641, 40.079479 ], [ -75.16497, 40.077869 ], [ -75.163399, 40.07695 ], [ -75.161957, 40.07613 ], [ -75.161285, 40.075764 ], [ -75.160429, 40.075301 ], [ -75.158417, 40.074169 ], [ -75.155834, 40.072733 ], [ -75.154694, 40.072084 ], [ -75.154076, 40.071732 ], [ -75.153333, 40.071309 ], [ -75.152756, 40.07098 ], [ -75.152185, 40.070656 ], [ -75.151886, 40.070488 ], [ -75.151596, 40.070328 ], [ -75.150719, 40.069828 ], [ -75.150002, 40.069424 ], [ -75.149574, 40.069187 ], [ -75.148331, 40.068485 ], [ -75.147644, 40.068096 ], [ -75.146683, 40.067547 ], [ -75.145477, 40.066856 ], [ -75.145452, 40.066842 ], [ -75.145187, 40.066692 ], [ -75.144857, 40.066503 ], [ -75.144547, 40.066322 ], [ -75.144096, 40.066067 ], [ -75.144066, 40.06605 ], [ -75.143117, 40.065493 ], [ -75.143056, 40.065458 ], [ -75.141876, 40.064793 ], [ -75.14185, 40.064778 ], [ -75.14119, 40.064405 ], [ -75.140897, 40.064239 ], [ -75.140851, 40.064213 ], [ -75.140709, 40.064133 ], [ -75.140579, 40.064056 ], [ -75.139427, 40.063358 ], [ -75.139365, 40.06332 ], [ -75.139352, 40.063313 ], [ -75.139313, 40.06329 ], [ -75.139076, 40.063154 ], [ -75.138932, 40.063071 ], [ -75.138213, 40.062659 ], [ -75.136948, 40.061935 ], [ -75.136719, 40.061821 ], [ -75.136528, 40.061729 ], [ -75.135193, 40.061031 ], [ -75.135124, 40.060989 ], [ -75.134888, 40.060852 ], [ -75.134392, 40.060532 ], [ -75.134087, 40.060337 ], [ -75.133316, 40.059818 ], [ -75.13253, 40.059299 ], [ -75.131683, 40.058777 ], [ -75.130402, 40.057964 ], [ -75.130135, 40.057796 ], [ -75.130046, 40.057739 ], [ -75.129814, 40.05759 ], [ -75.129021, 40.057091 ], [ -75.128555, 40.056812 ], [ -75.128488, 40.056772 ], [ -75.12709, 40.055931 ], [ -75.12632, 40.055481 ], [ -75.124916, 40.054684 ], [ -75.124619, 40.05452 ], [ -75.124451, 40.054428 ], [ -75.123756, 40.054058 ], [ -75.123314, 40.053822 ], [ -75.122147, 40.053177 ], [ -75.121643, 40.052891 ], [ -75.120827, 40.052425 ], [ -75.120018, 40.051964 ], [ -75.119545, 40.051697 ], [ -75.119467, 40.051653 ], [ -75.118771, 40.051254 ], [ -75.118652, 40.051186 ], [ -75.118553, 40.051132 ], [ -75.117104, 40.050304 ], [ -75.115036, 40.049118 ], [ -75.114506, 40.048806 ], [ -75.112912, 40.047882 ], [ -75.112871, 40.047858 ], [ -75.112363, 40.047563 ], [ -75.112055, 40.047385 ], [ -75.111141, 40.046858 ], [ -75.110985, 40.046769 ], [ -75.11087, 40.046702 ], [ -75.110731, 40.046622 ], [ -75.109431, 40.045874 ], [ -75.109406, 40.04584 ], [ -75.109353, 40.045942 ], [ -75.10931, 40.046031 ], [ -75.109022, 40.046641 ], [ -75.10891, 40.046826 ], [ -75.10876, 40.047063 ], [ -75.108605, 40.047298 ], [ -75.108443, 40.04753 ], [ -75.108275, 40.047759 ], [ -75.108092, 40.047982 ], [ -75.10789, 40.048195 ], [ -75.107675, 40.048399 ], [ -75.10745, 40.048599 ], [ -75.107226, 40.048798 ], [ -75.107033, 40.04897 ], [ -75.107002, 40.048997 ], [ -75.106773, 40.049194 ], [ -75.106531, 40.04938 ], [ -75.10627, 40.049548 ], [ -75.105994, 40.049706 ], [ -75.105723, 40.049866 ], [ -75.105453, 40.050029 ], [ -75.105185, 40.050192 ], [ -75.104914, 40.050355 ], [ -75.104801, 40.050422 ], [ -75.104645, 40.050517 ], [ -75.104568, 40.050563 ], [ -75.104374, 40.05068 ], [ -75.104102, 40.050842 ], [ -75.103829, 40.051003 ], [ -75.103557, 40.051164 ], [ -75.103279, 40.051314 ], [ -75.103249, 40.05133 ], [ -75.10323, 40.051355 ], [ -75.103006, 40.051475 ], [ -75.102726, 40.051624 ], [ -75.102445, 40.051773 ], [ -75.102413, 40.051792 ], [ -75.102171, 40.051931 ], [ -75.101899, 40.052091 ], [ -75.101631, 40.052255 ], [ -75.101367, 40.052423 ], [ -75.101105, 40.052591 ], [ -75.100935, 40.052699 ], [ -75.100896, 40.052723 ], [ -75.10084, 40.052759 ], [ -75.100801, 40.052782 ], [ -75.100573, 40.052924 ], [ -75.100303, 40.053085 ], [ -75.10025, 40.053114 ], [ -75.100028, 40.053241 ], [ -75.09983, 40.053352 ], [ -75.09975, 40.053396 ], [ -75.099472, 40.05355 ], [ -75.099194, 40.053703 ], [ -75.098916, 40.053859 ], [ -75.09864, 40.054014 ], [ -75.098364, 40.054169 ], [ -75.098086, 40.054324 ], [ -75.09781, 40.05448 ], [ -75.09772, 40.054531 ], [ -75.097539, 40.054636 ], [ -75.097525, 40.054642 ], [ -75.097484, 40.054665 ], [ -75.09726, 40.054793 ], [ -75.096985, 40.054951 ], [ -75.096711, 40.055109 ], [ -75.09644, 40.055268 ], [ -75.096169, 40.055429 ], [ -75.0959, 40.055593 ], [ -75.095633, 40.055759 ], [ -75.09536, 40.055908 ], [ -75.095214, 40.056004 ], [ -75.095078, 40.056091 ], [ -75.094841, 40.056255 ], [ -75.094673, 40.056362 ], [ -75.094566, 40.056431 ], [ -75.094315, 40.056595 ], [ -75.094193, 40.056679 ], [ -75.094056, 40.056771 ], [ -75.093701, 40.057074 ], [ -75.093504, 40.057241 ], [ -75.093644, 40.057429 ], [ -75.092692, 40.058309 ], [ -75.092291, 40.058704 ], [ -75.092035, 40.058952 ], [ -75.091969, 40.059015 ], [ -75.091462, 40.059491 ], [ -75.091385, 40.059563 ], [ -75.091133, 40.059822 ], [ -75.091094, 40.059863 ], [ -75.090462, 40.060528 ], [ -75.090416, 40.060581 ], [ -75.089706, 40.061298 ], [ -75.088966, 40.062042 ], [ -75.088671, 40.062342 ], [ -75.088196, 40.06282 ], [ -75.087425, 40.063599 ], [ -75.087875, 40.06385 ], [ -75.088064, 40.063956 ], [ -75.08876, 40.064342 ], [ -75.088912, 40.064432 ], [ -75.089272, 40.064644 ], [ -75.089378, 40.064705 ], [ -75.089518, 40.064786 ], [ -75.089752, 40.064922 ], [ -75.09037, 40.065285 ], [ -75.091783, 40.06611 ], [ -75.091919, 40.066189 ], [ -75.093223, 40.066935 ], [ -75.094948, 40.067947 ], [ -75.096458, 40.068829 ], [ -75.096634, 40.068932 ], [ -75.096733, 40.068989 ], [ -75.096214, 40.069492 ], [ -75.095184, 40.070499 ], [ -75.09384, 40.071829 ], [ -75.093651, 40.071753 ], [ -75.093124, 40.072334 ], [ -75.091545, 40.073902 ], [ -75.090317, 40.075115 ], [ -75.090193, 40.075238 ], [ -75.089828, 40.0756 ], [ -75.089088, 40.076374 ], [ -75.087898, 40.077606 ], [ -75.086906, 40.078648 ], [ -75.086861, 40.078625 ], [ -75.084453, 40.080948 ], [ -75.083415, 40.081953 ], [ -75.082456, 40.082884 ], [ -75.081649, 40.083667 ], [ -75.081189, 40.084116 ], [ -75.078906, 40.08523 ], [ -75.07881, 40.085277 ], [ -75.077805, 40.08577 ], [ -75.076431, 40.087193 ], [ -75.076416, 40.087208 ], [ -75.076393, 40.087227 ], [ -75.076385, 40.087234 ], [ -75.07637, 40.08725 ], [ -75.076363, 40.087265 ], [ -75.076249, 40.087377 ], [ -75.07621, 40.087417 ], [ -75.074582, 40.089103 ], [ -75.074561, 40.089124 ], [ -75.071369, 40.09243 ], [ -75.071281, 40.09252 ], [ -75.07127, 40.092532 ], [ -75.071171, 40.092635 ], [ -75.071009, 40.092802 ], [ -75.070708, 40.093114 ], [ -75.069456, 40.094411 ], [ -75.067703, 40.096224 ], [ -75.067174, 40.096772 ], [ -75.065651, 40.098354 ], [ -75.064933, 40.099092 ], [ -75.064457, 40.099584 ], [ -75.064203, 40.099846 ], [ -75.063745, 40.100321 ], [ -75.063603, 40.100466 ], [ -75.063537, 40.100533 ], [ -75.062796, 40.1013 ], [ -75.062732, 40.101367 ], [ -75.061401, 40.102741 ], [ -75.060318, 40.103859 ], [ -75.05954, 40.104656 ], [ -75.059196, 40.105011 ], [ -75.058342, 40.105892 ], [ -75.057953, 40.106163 ], [ -75.057518, 40.106377 ], [ -75.057067, 40.106632 ], [ -75.057178, 40.106694 ], [ -75.055328, 40.10799 ], [ -75.054321, 40.108692 ], [ -75.052975, 40.109636 ], [ -75.052925, 40.109669 ], [ -75.052134, 40.110221 ], [ -75.050658, 40.111252 ], [ -75.049526, 40.112042 ], [ -75.049392, 40.112135 ], [ -75.0493, 40.112199 ], [ -75.048542, 40.112729 ], [ -75.047449, 40.113492 ], [ -75.044263, 40.115713 ], [ -75.044216, 40.115747 ], [ -75.043856, 40.115997 ], [ -75.043807, 40.116031 ], [ -75.042307, 40.117078 ], [ -75.039043, 40.119356 ], [ -75.038709, 40.119599 ], [ -75.038336, 40.11987 ], [ -75.038289, 40.119902 ], [ -75.037842, 40.120213 ], [ -75.037554, 40.120413 ], [ -75.033633, 40.12313 ], [ -75.033263, 40.123385 ], [ -75.031805, 40.124397 ], [ -75.031652, 40.124503 ], [ -75.026233, 40.12826 ], [ -75.025787, 40.128571 ], [ -75.025131, 40.129082 ], [ -75.024891, 40.129216 ], [ -75.02371, 40.130053 ], [ -75.023008, 40.13055 ], [ -75.020571, 40.132274 ], [ -75.019598, 40.133229 ], [ -75.01795, 40.134848 ], [ -75.017777, 40.135025 ], [ -75.017021, 40.135806 ], [ -75.01649, 40.136354 ], [ -75.016322, 40.136527 ], [ -75.015629, 40.137335 ], [ -75.015066, 40.137992 ], [ -75.014703, 40.137771 ], [ -75.014575, 40.137693 ], [ -75.014388, 40.137578 ], [ -75.013884, 40.137269 ], [ -75.012745, 40.136573 ], [ -75.012587, 40.136477 ], [ -75.012378, 40.136349 ], [ -75.01227, 40.136284 ], [ -75.011899, 40.136058 ], [ -75.011454, 40.135788 ], [ -75.011047, 40.13553 ], [ -75.010627, 40.135276 ], [ -75.009465, 40.13457 ], [ -75.009117, 40.134355 ], [ -75.008664, 40.134075 ], [ -75.00853, 40.133992 ], [ -75.007687, 40.133528 ], [ -75.007412, 40.133377 ], [ -75.006902, 40.13308 ], [ -75.005988, 40.132548 ], [ -75.005946, 40.132524 ], [ -75.005902, 40.132498 ], [ -75.005692, 40.132376 ], [ -75.004096, 40.131447 ], [ -75.003998, 40.13139 ], [ -75.003909, 40.131339 ], [ -75.003255, 40.131012 ], [ -75.002273, 40.130377 ], [ -75.001525, 40.129936 ], [ -75.000957, 40.12961 ], [ -74.999744, 40.128911 ], [ -74.999584, 40.128819 ], [ -74.99946, 40.128748 ], [ -74.998981, 40.128459 ], [ -74.998564, 40.128217 ], [ -74.998518, 40.12819 ], [ -74.997885, 40.127816 ], [ -74.9978, 40.127902 ], [ -74.997571, 40.128117 ], [ -74.997448, 40.128249 ], [ -74.994187, 40.131516 ], [ -74.993894, 40.131883 ], [ -74.993673, 40.131734 ], [ -74.993508, 40.131616 ], [ -74.993431, 40.131552 ], [ -74.993355, 40.131461 ], [ -74.993211, 40.13132 ], [ -74.993101, 40.131185 ], [ -74.992997, 40.131051 ], [ -74.992922, 40.130947 ], [ -74.992841, 40.130816 ], [ -74.99278, 40.130726 ], [ -74.992751, 40.130606 ], [ -74.992744, 40.130505 ], [ -74.992772, 40.130424 ], [ -74.992814, 40.130302 ], [ -74.992864, 40.130226 ], [ -74.992941, 40.130197 ], [ -74.993047, 40.130188 ], [ -74.993104, 40.130093 ], [ -74.993113, 40.130017 ], [ -74.993101, 40.129894 ], [ -74.993134, 40.129796 ], [ -74.993186, 40.129762 ], [ -74.993278, 40.129734 ], [ -74.993389, 40.129705 ], [ -74.993481, 40.129672 ], [ -74.993524, 40.12963 ], [ -74.993503, 40.129514 ], [ -74.993449, 40.129427 ], [ -74.993417, 40.129176 ], [ -74.993422, 40.129003 ], [ -74.993506, 40.128773 ], [ -74.99366, 40.128753 ], [ -74.993692, 40.128676 ], [ -74.993783, 40.128614 ], [ -74.993812, 40.128507 ], [ -74.993795, 40.128461 ], [ -74.99366, 40.128383 ], [ -74.993687, 40.12821 ], [ -74.993668, 40.128114 ], [ -74.993752, 40.127912 ], [ -74.993894, 40.12775 ], [ -74.994005, 40.127676 ], [ -74.994237, 40.1275 ], [ -74.994407, 40.127278 ], [ -74.994473, 40.127111 ], [ -74.994526, 40.126953 ], [ -74.994544, 40.126682 ], [ -74.994481, 40.126521 ], [ -74.994426, 40.126415 ], [ -74.99435, 40.126219 ], [ -74.994276, 40.126142 ], [ -74.994167, 40.126094 ], [ -74.993924, 40.126048 ], [ -74.993481, 40.125999 ], [ -74.993147, 40.125937 ], [ -74.992876, 40.125906 ], [ -74.992636, 40.125911 ], [ -74.992364, 40.125933 ], [ -74.992044, 40.125986 ], [ -74.991702, 40.126071 ], [ -74.991454, 40.126135 ], [ -74.991066, 40.126204 ], [ -74.990782, 40.126268 ], [ -74.99062, 40.126296 ], [ -74.990425, 40.126257 ], [ -74.990364, 40.126243 ], [ -74.990294, 40.12623 ], [ -74.990081, 40.126231 ], [ -74.989559, 40.126235 ], [ -74.989338, 40.126196 ], [ -74.989156, 40.126162 ], [ -74.989058, 40.126107 ], [ -74.989042, 40.126013 ], [ -74.989012, 40.125906 ], [ -74.988977, 40.125797 ], [ -74.988991, 40.125725 ], [ -74.989067, 40.125635 ], [ -74.989072, 40.125568 ], [ -74.989014, 40.12548 ], [ -74.988939, 40.125419 ], [ -74.988797, 40.125308 ], [ -74.988713, 40.125153 ], [ -74.988695, 40.125096 ], [ -74.98858, 40.124858 ], [ -74.988605, 40.124643 ], [ -74.988632, 40.124416 ], [ -74.988453, 40.124268 ], [ -74.98778, 40.123917 ], [ -74.987707, 40.123897 ], [ -74.987543, 40.12379 ], [ -74.987385, 40.123665 ], [ -74.987315, 40.123586 ], [ -74.987195, 40.123512 ], [ -74.987045, 40.123478 ], [ -74.986907, 40.123375 ], [ -74.986844, 40.123327 ], [ -74.986697, 40.123187 ], [ -74.986669, 40.123161 ], [ -74.986547, 40.123058 ], [ -74.986491, 40.123039 ], [ -74.986425, 40.123048 ], [ -74.986243, 40.123135 ], [ -74.986036, 40.123249 ], [ -74.98592, 40.123332 ], [ -74.985674, 40.123483 ], [ -74.985528, 40.123604 ], [ -74.985133, 40.12383 ], [ -74.984983, 40.123896 ], [ -74.984754, 40.123874 ], [ -74.98446, 40.123807 ], [ -74.984419, 40.123798 ], [ -74.984386, 40.123758 ], [ -74.984358, 40.123663 ], [ -74.984306, 40.123593 ], [ -74.984213, 40.123561 ], [ -74.984079, 40.12356 ], [ -74.983975, 40.123596 ], [ -74.983677, 40.123609 ], [ -74.983543, 40.123632 ], [ -74.983432, 40.12362 ], [ -74.983282, 40.123535 ], [ -74.983001, 40.123377 ], [ -74.982958, 40.123353 ], [ -74.982678, 40.123007 ], [ -74.982585, 40.122854 ], [ -74.982584, 40.12279 ], [ -74.982602, 40.122737 ], [ -74.982738, 40.122537 ], [ -74.982756, 40.122449 ], [ -74.982722, 40.122352 ], [ -74.982633, 40.122215 ], [ -74.982505, 40.12195 ], [ -74.982447, 40.1219 ], [ -74.982326, 40.121905 ], [ -74.982253, 40.121895 ], [ -74.982291, 40.121739 ], [ -74.982448, 40.121442 ], [ -74.982541, 40.121321 ], [ -74.982605, 40.121182 ], [ -74.98277, 40.12115 ], [ -74.982931, 40.121093 ], [ -74.983002, 40.121008 ], [ -74.983068, 40.120891 ], [ -74.983081, 40.120797 ], [ -74.983078, 40.120641 ], [ -74.983033, 40.120456 ], [ -74.982983, 40.120349 ], [ -74.982921, 40.120282 ], [ -74.982788, 40.120222 ], [ -74.982714, 40.12017 ], [ -74.982673, 40.120109 ], [ -74.982618, 40.120047 ], [ -74.982515, 40.119989 ], [ -74.982371, 40.119942 ], [ -74.982164, 40.119915 ], [ -74.981981, 40.11991 ], [ -74.981833, 40.119919 ], [ -74.981697, 40.119961 ], [ -74.981587, 40.120022 ], [ -74.981507, 40.12008 ], [ -74.981324, 40.120149 ], [ -74.980809, 40.12007 ], [ -74.980215, 40.120015 ], [ -74.980112, 40.119933 ], [ -74.980076, 40.119903 ], [ -74.980058, 40.119883 ], [ -74.98004, 40.119862 ], [ -74.97994, 40.119742 ], [ -74.979843, 40.119625 ], [ -74.979762, 40.119565 ], [ -74.979712, 40.119499 ], [ -74.979599, 40.119421 ], [ -74.979469, 40.119379 ], [ -74.979283, 40.119344 ], [ -74.979132, 40.119343 ], [ -74.979008, 40.119372 ], [ -74.978891, 40.119419 ], [ -74.978799, 40.119486 ], [ -74.978687, 40.119534 ], [ -74.978603, 40.11954 ], [ -74.978478, 40.1195 ], [ -74.978367, 40.119455 ], [ -74.978243, 40.119481 ], [ -74.977975, 40.119594 ], [ -74.977737, 40.119654 ], [ -74.977646, 40.119695 ], [ -74.977587, 40.11976 ], [ -74.977548, 40.119829 ], [ -74.977519, 40.120018 ], [ -74.977382, 40.120062 ], [ -74.977246, 40.120061 ], [ -74.977142, 40.120025 ], [ -74.977041, 40.119959 ], [ -74.976929, 40.11992 ], [ -74.976794, 40.119925 ], [ -74.976611, 40.119966 ], [ -74.976398, 40.120041 ], [ -74.976136, 40.120142 ], [ -74.976071, 40.120201 ], [ -74.976029, 40.120278 ], [ -74.976066, 40.120377 ], [ -74.97603, 40.120437 ], [ -74.975931, 40.120457 ], [ -74.975814, 40.120434 ], [ -74.975731, 40.120392 ], [ -74.975732, 40.120318 ], [ -74.975724, 40.120252 ], [ -74.975671, 40.12019 ], [ -74.975566, 40.120172 ], [ -74.97539, 40.120189 ], [ -74.975226, 40.120216 ], [ -74.9751, 40.120211 ], [ -74.974972, 40.120164 ], [ -74.974805, 40.120075 ], [ -74.974689, 40.119999 ], [ -74.974612, 40.119911 ], [ -74.974536, 40.119849 ], [ -74.974427, 40.119797 ], [ -74.974287, 40.119785 ], [ -74.974075, 40.119787 ], [ -74.973608, 40.119806 ], [ -74.973366, 40.119796 ], [ -74.973111, 40.11978 ], [ -74.972961, 40.119803 ], [ -74.972646, 40.119655 ], [ -74.972052, 40.11926 ], [ -74.971873, 40.119084 ], [ -74.971422, 40.118573 ], [ -74.971172, 40.11826 ], [ -74.971086, 40.118079 ], [ -74.97095, 40.117909 ], [ -74.970884, 40.117851 ], [ -74.970842, 40.117752 ], [ -74.97075, 40.117645 ], [ -74.970614, 40.117524 ], [ -74.970451, 40.117384 ], [ -74.970347, 40.11719 ], [ -74.970268, 40.117085 ], [ -74.970178, 40.117004 ], [ -74.970082, 40.116961 ], [ -74.969986, 40.116947 ], [ -74.969916, 40.116956 ], [ -74.969866, 40.116981 ], [ -74.969813, 40.117013 ], [ -74.969738, 40.117017 ], [ -74.969646, 40.117 ], [ -74.969592, 40.116973 ], [ -74.969479, 40.116915 ], [ -74.969325, 40.116847 ], [ -74.969202, 40.116817 ], [ -74.969086, 40.116841 ], [ -74.968916, 40.116873 ], [ -74.968685, 40.116935 ], [ -74.96844, 40.117026 ], [ -74.96832, 40.117093 ], [ -74.968216, 40.117169 ], [ -74.968125, 40.117216 ], [ -74.968035, 40.117292 ], [ -74.96789, 40.1174 ], [ -74.967732, 40.117524 ], [ -74.967559, 40.117627 ], [ -74.967516, 40.117678 ], [ -74.967483, 40.117799 ], [ -74.967461, 40.117876 ], [ -74.967353, 40.117928 ], [ -74.967122, 40.117943 ], [ -74.96695, 40.118003 ], [ -74.966721, 40.118047 ], [ -74.966533, 40.118078 ], [ -74.966384, 40.118112 ], [ -74.966079, 40.118234 ], [ -74.965898, 40.118306 ], [ -74.965463, 40.118553 ], [ -74.965205, 40.118613 ], [ -74.964991, 40.118635 ], [ -74.96474, 40.11857 ], [ -74.964612, 40.118476 ], [ -74.964526, 40.118372 ], [ -74.964497, 40.118316 ], [ -74.964507, 40.118237 ], [ -74.964488, 40.118122 ], [ -74.964417, 40.117981 ], [ -74.964333, 40.117822 ], [ -74.96428, 40.11762 ], [ -74.96426, 40.117558 ], [ -74.964206, 40.117395 ], [ -74.964145, 40.117325 ], [ -74.964115, 40.11729 ], [ -74.963997, 40.117223 ], [ -74.963829, 40.117123 ], [ -74.963735, 40.11708 ], [ -74.963575, 40.117039 ], [ -74.963442, 40.117004 ], [ -74.963377, 40.116966 ], [ -74.963294, 40.116888 ], [ -74.963219, 40.116759 ], [ -74.963174, 40.116675 ], [ -74.96315, 40.116499 ], [ -74.963141, 40.116358 ], [ -74.963155, 40.116196 ], [ -74.963132, 40.116096 ], [ -74.963114, 40.115997 ], [ -74.96311, 40.115871 ], [ -74.963146, 40.115791 ], [ -74.9632, 40.115712 ], [ -74.963248, 40.115642 ], [ -74.963316, 40.115517 ], [ -74.963329, 40.115473 ], [ -74.963394, 40.11529 ], [ -74.963413, 40.115209 ], [ -74.963348, 40.115126 ], [ -74.96326, 40.115026 ], [ -74.963236, 40.114961 ], [ -74.963168, 40.114816 ], [ -74.963201, 40.114676 ], [ -74.963346, 40.114338 ], [ -74.963456, 40.1142 ], [ -74.963669, 40.113992 ], [ -74.964, 40.113682 ], [ -74.96409, 40.113554 ], [ -74.964137, 40.113462 ], [ -74.964155, 40.113373 ], [ -74.964136, 40.113281 ], [ -74.964021, 40.11301 ], [ -74.963918, 40.11263 ], [ -74.963877, 40.112431 ], [ -74.963883, 40.112194 ], [ -74.963879, 40.112003 ], [ -74.963849, 40.111913 ], [ -74.963783, 40.111738 ], [ -74.963776, 40.111645 ], [ -74.963795, 40.111544 ], [ -74.963851, 40.111473 ], [ -74.963934, 40.111373 ], [ -74.964045, 40.111211 ], [ -74.964104, 40.111061 ], [ -74.96412, 40.110951 ], [ -74.96412, 40.110858 ], [ -74.964039, 40.110706 ], [ -74.963901, 40.11056 ], [ -74.963838, 40.110457 ], [ -74.963839, 40.11037 ], [ -74.963811, 40.110221 ], [ -74.963745, 40.110086 ], [ -74.963709, 40.109957 ], [ -74.963709, 40.109867 ], [ -74.96377, 40.109753 ], [ -74.96389, 40.109602 ], [ -74.963977, 40.109508 ], [ -74.964074, 40.109453 ], [ -74.964233, 40.109427 ], [ -74.964408, 40.109498 ], [ -74.964508, 40.109469 ], [ -74.964601, 40.109401 ], [ -74.964678, 40.109313 ], [ -74.964737, 40.109181 ], [ -74.964763, 40.109083 ], [ -74.964809, 40.108997 ], [ -74.964876, 40.108926 ], [ -74.964934, 40.108878 ], [ -74.965058, 40.10882 ], [ -74.965116, 40.108773 ], [ -74.965205, 40.108653 ], [ -74.965386, 40.108387 ], [ -74.965574, 40.108152 ], [ -74.965607, 40.108091 ], [ -74.96556, 40.10804 ], [ -74.965502, 40.107981 ], [ -74.965431, 40.107886 ], [ -74.965367, 40.107774 ], [ -74.965294, 40.107622 ], [ -74.965211, 40.107443 ], [ -74.965122, 40.107304 ], [ -74.965056, 40.107215 ], [ -74.964977, 40.10719 ], [ -74.964725, 40.107173 ], [ -74.96442, 40.107139 ], [ -74.964194, 40.107119 ], [ -74.963957, 40.107099 ], [ -74.963682, 40.107047 ], [ -74.963516, 40.106981 ], [ -74.963335, 40.106872 ], [ -74.963248, 40.106771 ], [ -74.963199, 40.106671 ], [ -74.963268, 40.10656 ], [ -74.963372, 40.106513 ], [ -74.963459, 40.106482 ], [ -74.963595, 40.10644 ], [ -74.963658, 40.106378 ], [ -74.963669, 40.106279 ], [ -74.963605, 40.106138 ], [ -74.963627, 40.106063 ], [ -74.963691, 40.105969 ], [ -74.963785, 40.105902 ], [ -74.963906, 40.105803 ], [ -74.963962, 40.105729 ], [ -74.963962, 40.105636 ], [ -74.963926, 40.105589 ], [ -74.963796, 40.105539 ], [ -74.963591, 40.105468 ], [ -74.963398, 40.105385 ], [ -74.963183, 40.105284 ], [ -74.962963, 40.105203 ], [ -74.962692, 40.105135 ], [ -74.962554, 40.105077 ], [ -74.962498, 40.104985 ], [ -74.962446, 40.104883 ], [ -74.962428, 40.104848 ], [ -74.962432, 40.104755 ], [ -74.962466, 40.104648 ], [ -74.962538, 40.104548 ], [ -74.962538, 40.104476 ], [ -74.962377, 40.104344 ], [ -74.96209, 40.104137 ], [ -74.961991, 40.104018 ], [ -74.961766, 40.10381 ], [ -74.961563, 40.103674 ], [ -74.961401, 40.103574 ], [ -74.961227, 40.103489 ], [ -74.961156, 40.103446 ], [ -74.961141, 40.103431 ], [ -74.961001, 40.103324 ], [ -74.960886, 40.103104 ], [ -74.960908, 40.103033 ], [ -74.961065, 40.10295 ], [ -74.961051, 40.102918 ], [ -74.961088, 40.102777 ], [ -74.961198, 40.102597 ], [ -74.961201, 40.10242 ], [ -74.961233, 40.102276 ], [ -74.961289, 40.102121 ], [ -74.961293, 40.102016 ], [ -74.961268, 40.101949 ], [ -74.961176, 40.101868 ], [ -74.9611, 40.101797 ], [ -74.96106, 40.101668 ], [ -74.961124, 40.101397 ], [ -74.961225, 40.101289 ], [ -74.961393, 40.101151 ], [ -74.961476, 40.10106 ], [ -74.961642, 40.100896 ], [ -74.9617, 40.100769 ], [ -74.961687, 40.100731 ], [ -74.961743, 40.100648 ], [ -74.961767, 40.100521 ], [ -74.961799, 40.100377 ], [ -74.961845, 40.100169 ], [ -74.961853, 40.100088 ], [ -74.961888, 40.099903 ], [ -74.961931, 40.099788 ], [ -74.961976, 40.099708 ], [ -74.962012, 40.099651 ], [ -74.962019, 40.099587 ], [ -74.961984, 40.099502 ], [ -74.961916, 40.099408 ], [ -74.961814, 40.099318 ], [ -74.961738, 40.099255 ], [ -74.961672, 40.099196 ], [ -74.961685, 40.099155 ], [ -74.961729, 40.099092 ], [ -74.961784, 40.099036 ], [ -74.962069, 40.098767 ], [ -74.962093, 40.098663 ], [ -74.962061, 40.09861 ], [ -74.961907, 40.098496 ], [ -74.961723, 40.098378 ], [ -74.961605, 40.098291 ], [ -74.961577, 40.09823 ], [ -74.961595, 40.098166 ], [ -74.961659, 40.098095 ], [ -74.961773, 40.098017 ], [ -74.961811, 40.097928 ], [ -74.961807, 40.097852 ], [ -74.961787, 40.097773 ], [ -74.961766, 40.097752 ], [ -74.961722, 40.097708 ], [ -74.961618, 40.097662 ], [ -74.961443, 40.0976 ], [ -74.961342, 40.097496 ], [ -74.961192, 40.097447 ], [ -74.961049, 40.097431 ], [ -74.960455, 40.097464 ], [ -74.960083, 40.097376 ], [ -74.95994, 40.09737 ], [ -74.959339, 40.097129 ], [ -74.959154, 40.097047 ], [ -74.958771, 40.096938 ], [ -74.958749, 40.096929 ], [ -74.958623, 40.096872 ], [ -74.958488, 40.09681 ], [ -74.958345, 40.096723 ], [ -74.958159, 40.096569 ], [ -74.957744, 40.096091 ], [ -74.957415, 40.09597 ], [ -74.957079, 40.095915 ], [ -74.956829, 40.095943 ], [ -74.956636, 40.095943 ], [ -74.956271, 40.095767 ], [ -74.956164, 40.095745 ], [ -74.956114, 40.095691 ], [ -74.956063, 40.09557 ], [ -74.955835, 40.095235 ], [ -74.955777, 40.095103 ], [ -74.955763, 40.094982 ], [ -74.955813, 40.094856 ], [ -74.955913, 40.094718 ], [ -74.956049, 40.094598 ], [ -74.956306, 40.094037 ], [ -74.956328, 40.093845 ], [ -74.956299, 40.093636 ], [ -74.956308, 40.093204 ], [ -74.956326, 40.09312 ], [ -74.956345, 40.09299 ], [ -74.956392, 40.092897 ], [ -74.956447, 40.092757 ], [ -74.95655, 40.092599 ], [ -74.956643, 40.09245 ], [ -74.956764, 40.092274 ], [ -74.956885, 40.092088 ], [ -74.957006, 40.091985 ], [ -74.957089, 40.091902 ], [ -74.957145, 40.091762 ], [ -74.95721, 40.09165 ], [ -74.957257, 40.09153 ], [ -74.957396, 40.091316 ], [ -74.957573, 40.09112 ], [ -74.957703, 40.090925 ], [ -74.957815, 40.09073 ], [ -74.957899, 40.090571 ], [ -74.957936, 40.090423 ], [ -74.957945, 40.090348 ], [ -74.957936, 40.090237 ], [ -74.957917, 40.090116 ], [ -74.957824, 40.089995 ], [ -74.957747, 40.089844 ], [ -74.957807, 40.089763 ], [ -74.957857, 40.089694 ], [ -74.957978, 40.089529 ], [ -74.958036, 40.089451 ], [ -74.958122, 40.089333 ], [ -74.958158, 40.08926 ], [ -74.958165, 40.089159 ], [ -74.958173, 40.088999 ], [ -74.95818, 40.088811 ], [ -74.958028, 40.088405 ], [ -74.958006, 40.088275 ], [ -74.957948, 40.088101 ], [ -74.957825, 40.08784 ], [ -74.957687, 40.087623 ], [ -74.957622, 40.087311 ], [ -74.9576, 40.087181 ], [ -74.9576, 40.087094 ], [ -74.957666, 40.087029 ], [ -74.957753, 40.086949 ], [ -74.957825, 40.086877 ], [ -74.957912, 40.086812 ], [ -74.957948, 40.086746 ], [ -74.958006, 40.086645 ], [ -74.958028, 40.086551 ], [ -74.958035, 40.086471 ], [ -74.958021, 40.086391 ], [ -74.958028, 40.086239 ], [ -74.958093, 40.086131 ], [ -74.958173, 40.086015 ], [ -74.958209, 40.08587 ], [ -74.958214, 40.085642 ], [ -74.95825, 40.085274 ], [ -74.958297, 40.085058 ], [ -74.958349, 40.084942 ], [ -74.958385, 40.084897 ], [ -74.958626, 40.084593 ], [ -74.958678, 40.084382 ], [ -74.958629, 40.084294 ], [ -74.958547, 40.084257 ], [ -74.958421, 40.084207 ], [ -74.958364, 40.084113 ], [ -74.958372, 40.084023 ], [ -74.958382, 40.083957 ], [ -74.958421, 40.08392 ], [ -74.958591, 40.083924 ], [ -74.958654, 40.083913 ], [ -74.958721, 40.083901 ], [ -74.958902, 40.083723 ], [ -74.958964, 40.083585 ], [ -74.958983, 40.083452 ], [ -74.958943, 40.08332 ], [ -74.958956, 40.083222 ], [ -74.958946, 40.083161 ], [ -74.959017, 40.083081 ], [ -74.959133, 40.082919 ], [ -74.959153, 40.082806 ], [ -74.95913, 40.082715 ], [ -74.959038, 40.082582 ], [ -74.958999, 40.082503 ], [ -74.95905, 40.082409 ], [ -74.959085, 40.082349 ], [ -74.959248, 40.082373 ], [ -74.959652, 40.082316 ], [ -74.959742, 40.082304 ], [ -74.959858, 40.082248 ], [ -74.959953, 40.082137 ], [ -74.96001, 40.082049 ], [ -74.960049, 40.081922 ], [ -74.960072, 40.081785 ], [ -74.960077, 40.081672 ], [ -74.960078, 40.081535 ], [ -74.96006, 40.081451 ], [ -74.960039, 40.081323 ], [ -74.960243, 40.081109 ], [ -74.9603, 40.081053 ], [ -74.960411, 40.080967 ], [ -74.960814, 40.080651 ], [ -74.960882, 40.080583 ], [ -74.961075, 40.080441 ], [ -74.961121, 40.080388 ], [ -74.961272, 40.080187 ], [ -74.961405, 40.08003 ], [ -74.961522, 40.079922 ], [ -74.961634, 40.079838 ], [ -74.961728, 40.079774 ], [ -74.961893, 40.079662 ], [ -74.962014, 40.079584 ], [ -74.962106, 40.079472 ], [ -74.962132, 40.079376 ], [ -74.962129, 40.079329 ], [ -74.962155, 40.079118 ], [ -74.962199, 40.079009 ], [ -74.962269, 40.078894 ], [ -74.962332, 40.078825 ], [ -74.962371, 40.078785 ], [ -74.962468, 40.078688 ], [ -74.962505, 40.078639 ], [ -74.962534, 40.078579 ], [ -74.962532, 40.078519 ], [ -74.962517, 40.078459 ], [ -74.96248, 40.078405 ], [ -74.96243, 40.078253 ], [ -74.962429, 40.078231 ], [ -74.962452, 40.078201 ], [ -74.962526, 40.078123 ], [ -74.96258, 40.078073 ], [ -74.962661, 40.077995 ], [ -74.962714, 40.077859 ], [ -74.962761, 40.077774 ], [ -74.962861, 40.077692 ], [ -74.962935, 40.077646 ], [ -74.963021, 40.077571 ], [ -74.963067, 40.077504 ], [ -74.963092, 40.077418 ], [ -74.963145, 40.077326 ], [ -74.963266, 40.077241 ], [ -74.963334, 40.077212 ], [ -74.963466, 40.077155 ], [ -74.963604, 40.077105 ], [ -74.963764, 40.077063 ], [ -74.963989, 40.077041 ], [ -74.964234, 40.077059 ], [ -74.964485, 40.077098 ], [ -74.964514, 40.077105 ], [ -74.964842, 40.077148 ], [ -74.964887, 40.077157 ], [ -74.964963, 40.07717 ], [ -74.965424, 40.07723 ], [ -74.965614, 40.077244 ], [ -74.965924, 40.077281 ], [ -74.966216, 40.077258 ], [ -74.966401, 40.077189 ], [ -74.96653, 40.077082 ], [ -74.966674, 40.076888 ], [ -74.966734, 40.076735 ], [ -74.966771, 40.076633 ], [ -74.966882, 40.076439 ], [ -74.967063, 40.076378 ], [ -74.967401, 40.076337 ], [ -74.967586, 40.076337 ], [ -74.967767, 40.076318 ], [ -74.96803, 40.076314 ], [ -74.968447, 40.0763 ], [ -74.968762, 40.0763 ], [ -74.96904, 40.076328 ], [ -74.969229, 40.076357 ], [ -74.969295, 40.076399 ], [ -74.96948, 40.076454 ], [ -74.969627, 40.076474 ], [ -74.969749, 40.076474 ], [ -74.969824, 40.076445 ], [ -74.9699, 40.076387 ], [ -74.970011, 40.076333 ], [ -74.970109, 40.076269 ], [ -74.97025, 40.076219 ], [ -74.970367, 40.076222 ], [ -74.97051, 40.076238 ], [ -74.970692, 40.076253 ], [ -74.970837, 40.076213 ], [ -74.97094, 40.076135 ], [ -74.971086, 40.076007 ], [ -74.971133, 40.075966 ], [ -74.971197, 40.075934 ], [ -74.971299, 40.075841 ], [ -74.971331, 40.075721 ], [ -74.97135, 40.075619 ], [ -74.971355, 40.075541 ], [ -74.97135, 40.075429 ], [ -74.971345, 40.075323 ], [ -74.971313, 40.075226 ], [ -74.97128, 40.075064 ], [ -74.971271, 40.074939 ], [ -74.97128, 40.074828 ], [ -74.971308, 40.074693 ], [ -74.971336, 40.074642 ], [ -74.971392, 40.074587 ], [ -74.971466, 40.074517 ], [ -74.971484, 40.074429 ], [ -74.971466, 40.074355 ], [ -74.971438, 40.074295 ], [ -74.971405, 40.074258 ], [ -74.971262, 40.074147 ], [ -74.971063, 40.073966 ], [ -74.971036, 40.073857 ], [ -74.971036, 40.073824 ], [ -74.971062, 40.073731 ], [ -74.971103, 40.073695 ], [ -74.971258, 40.073606 ], [ -74.971398, 40.073518 ], [ -74.971626, 40.073374 ], [ -74.971943, 40.073322 ], [ -74.97208, 40.073249 ], [ -74.972153, 40.073201 ], [ -74.972212, 40.073142 ], [ -74.972235, 40.073038 ], [ -74.972238, 40.072939 ], [ -74.972263, 40.072799 ], [ -74.972282, 40.072684 ], [ -74.97229, 40.07267 ], [ -74.972334, 40.072559 ], [ -74.972349, 40.072408 ], [ -74.972378, 40.072342 ], [ -74.972445, 40.072235 ], [ -74.972585, 40.072139 ], [ -74.972935, 40.071921 ], [ -74.973062, 40.071876 ], [ -74.973212, 40.071826 ], [ -74.97338, 40.071747 ], [ -74.973474, 40.071689 ], [ -74.973528, 40.071633 ], [ -74.973565, 40.071574 ], [ -74.973602, 40.071522 ], [ -74.973605, 40.071458 ], [ -74.973616, 40.071392 ], [ -74.973631, 40.071345 ], [ -74.973744, 40.071245 ], [ -74.973866, 40.071185 ], [ -74.973888, 40.071175 ], [ -74.973901, 40.07117 ], [ -74.973989, 40.071132 ], [ -74.974138, 40.071068 ], [ -74.974197, 40.071043 ], [ -74.974325, 40.070988 ], [ -74.974416, 40.070972 ], [ -74.97461, 40.070893 ], [ -74.9748, 40.070821 ], [ -74.974898, 40.07076 ], [ -74.97498, 40.070678 ], [ -74.97504, 40.070593 ], [ -74.97507, 40.070494 ], [ -74.9751, 40.070398 ], [ -74.975122, 40.070288 ], [ -74.97512, 40.070224 ], [ -74.975096, 40.070062 ], [ -74.975098, 40.070034 ], [ -74.975173, 40.069985 ], [ -74.975237, 40.069943 ], [ -74.975266, 40.06993 ], [ -74.975483, 40.069833 ], [ -74.975995, 40.069603 ], [ -74.976142, 40.069482 ], [ -74.976202, 40.069432 ], [ -74.976288, 40.069328 ], [ -74.976618, 40.069204 ], [ -74.976699, 40.069144 ], [ -74.976733, 40.06907 ], [ -74.976786, 40.069009 ], [ -74.97686, 40.068875 ], [ -74.976887, 40.068794 ], [ -74.976901, 40.068713 ], [ -74.976988, 40.068632 ], [ -74.977103, 40.068444 ], [ -74.977103, 40.068397 ], [ -74.977116, 40.068323 ], [ -74.977124, 40.06825 ], [ -74.97721, 40.068168 ], [ -74.977298, 40.068121 ], [ -74.977416, 40.068028 ], [ -74.977627, 40.067906 ], [ -74.977857, 40.067808 ], [ -74.978008, 40.067725 ], [ -74.978159, 40.067638 ], [ -74.978371, 40.067577 ], [ -74.978616, 40.067519 ], [ -74.978881, 40.067422 ], [ -74.979092, 40.067367 ], [ -74.979181, 40.067302 ], [ -74.979412, 40.067198 ], [ -74.979555, 40.067081 ], [ -74.979605, 40.067035 ], [ -74.979712, 40.066973 ], [ -74.97978, 40.066911 ], [ -74.979804, 40.066855 ], [ -74.979837, 40.066792 ], [ -74.979844, 40.066719 ], [ -74.979914, 40.066626 ], [ -74.97999, 40.066566 ], [ -74.980192, 40.066445 ], [ -74.980421, 40.066337 ], [ -74.980575, 40.06625 ], [ -74.98069, 40.066203 ], [ -74.980838, 40.066102 ], [ -74.980878, 40.066028 ], [ -74.980892, 40.065907 ], [ -74.980919, 40.065718 ], [ -74.980953, 40.065565 ], [ -74.980989, 40.065508 ], [ -74.981023, 40.064939 ], [ -74.981016, 40.064847 ], [ -74.980939, 40.064713 ], [ -74.980903, 40.064616 ], [ -74.980873, 40.064466 ], [ -74.980901, 40.064381 ], [ -74.980905, 40.064269 ], [ -74.981022, 40.063818 ], [ -74.981139, 40.063683 ], [ -74.98114, 40.063368 ], [ -74.980905, 40.063007 ], [ -74.980905, 40.062737 ], [ -74.980864, 40.062695 ], [ -74.980803, 40.062595 ], [ -74.980807, 40.062502 ], [ -74.980829, 40.062399 ], [ -74.980868, 40.062293 ], [ -74.980912, 40.06218 ], [ -74.980974, 40.062093 ], [ -74.980985, 40.062078 ], [ -74.981007, 40.061965 ], [ -74.981029, 40.061859 ], [ -74.981015, 40.061779 ], [ -74.981001, 40.061688 ], [ -74.980953, 40.06159 ], [ -74.980908, 40.06141 ], [ -74.980917, 40.061304 ], [ -74.980934, 40.061197 ], [ -74.980943, 40.061094 ], [ -74.980926, 40.060983 ], [ -74.980917, 40.06088 ], [ -74.980886, 40.060792 ], [ -74.980842, 40.060684 ], [ -74.980767, 40.060606 ], [ -74.980548, 40.060454 ], [ -74.980481, 40.060383 ], [ -74.980437, 40.060304 ], [ -74.981551, 40.059448 ], [ -74.981844, 40.059088 ], [ -74.982372, 40.058683 ], [ -74.9829, 40.058367 ], [ -74.983017, 40.058367 ], [ -74.98331, 40.058187 ], [ -74.98387, 40.057948 ], [ -74.983894, 40.057938 ], [ -74.983997, 40.05792 ], [ -74.984171, 40.057873 ], [ -74.984287, 40.057837 ], [ -74.984372, 40.057786 ], [ -74.984539, 40.057636 ], [ -74.984913, 40.057392 ], [ -74.985065, 40.057292 ], [ -74.985152, 40.057199 ], [ -74.985186, 40.057106 ], [ -74.985181, 40.057012 ], [ -74.985163, 40.056932 ], [ -74.984942, 40.056727 ], [ -74.98482, 40.056603 ], [ -74.984693, 40.05651 ], [ -74.984589, 40.056404 ], [ -74.984493, 40.056291 ], [ -74.984473, 40.05627 ], [ -74.984302, 40.05585 ], [ -74.98419, 40.055575 ], [ -74.984203, 40.055516 ], [ -74.984199, 40.055503 ], [ -74.98419, 40.05547 ], [ -74.98419, 40.055349 ], [ -74.984073, 40.055124 ], [ -74.983997, 40.055066 ], [ -74.983968, 40.055043 ], [ -74.983932, 40.055016 ], [ -74.983904, 40.054994 ], [ -74.983889, 40.054979 ], [ -74.983838, 40.054912 ], [ -74.983555, 40.054538 ], [ -74.983487, 40.054448 ], [ -74.983194, 40.054223 ], [ -74.982666, 40.053953 ], [ -74.982549, 40.053953 ], [ -74.982202, 40.053804 ], [ -74.982022, 40.053727 ], [ -74.980028, 40.053637 ], [ -74.979735, 40.053547 ], [ -74.979715, 40.053473 ], [ -74.979695, 40.053399 ], [ -74.979549, 40.053245 ], [ -74.979466, 40.053157 ], [ -74.979094, 40.052861 ], [ -74.978558, 40.052493 ], [ -74.978415, 40.052415 ], [ -74.978186, 40.05229 ], [ -74.977923, 40.052132 ], [ -74.976281, 40.050659 ], [ -74.976012, 40.050417 ], [ -74.974996, 40.049506 ], [ -74.974784, 40.049316 ], [ -74.975761, 40.04815 ], [ -74.976214, 40.0477 ], [ -74.97664, 40.047408 ], [ -74.977188, 40.047166 ], [ -74.978256, 40.046858 ], [ -74.978616, 40.046756 ], [ -74.979199, 40.046594 ], [ -74.979892, 40.046341 ], [ -74.980591, 40.045944 ], [ -74.981167, 40.045528 ], [ -74.981634, 40.045152 ], [ -74.982349, 40.044475 ], [ -74.98267, 40.044079 ], [ -74.983133, 40.043507 ], [ -74.983828, 40.042713 ], [ -74.98443, 40.042155 ], [ -74.984848, 40.041836 ], [ -74.984943, 40.041769 ], [ -74.985664, 40.041303 ], [ -74.98628, 40.040942 ], [ -74.987024, 40.040483 ], [ -74.987676, 40.039983 ], [ -74.987707, 40.039958 ], [ -74.990724, 40.037349 ], [ -74.992555, 40.035764 ], [ -74.995782, 40.032894 ], [ -74.99773, 40.031163 ], [ -74.998759, 40.030281 ], [ -74.999759, 40.029605 ], [ -75.000467, 40.029192 ], [ -75.000861, 40.028963 ], [ -75.0021, 40.028203 ], [ -75.003423, 40.027393 ], [ -75.00623, 40.025671 ], [ -75.009692, 40.023463 ], [ -75.01063, 40.022785 ], [ -75.012595, 40.021273 ], [ -75.013229, 40.020878 ], [ -75.013677, 40.020599 ], [ -75.013944, 40.020441 ], [ -75.014864, 40.019895 ], [ -75.016278, 40.019213 ], [ -75.018256, 40.018385 ], [ -75.019369, 40.017982 ], [ -75.020415, 40.017705 ], [ -75.020606, 40.017667 ], [ -75.021479, 40.017492 ], [ -75.022501, 40.017277 ], [ -75.023771, 40.017069 ], [ -75.026581, 40.016658 ], [ -75.029453, 40.016279 ], [ -75.030527, 40.016138 ], [ -75.030938, 40.016092 ], [ -75.031929, 40.015918 ], [ -75.033053, 40.01573 ], [ -75.034783, 40.015421 ], [ -75.035462, 40.015244 ], [ -75.036581, 40.014954 ], [ -75.037879, 40.014555 ], [ -75.038484, 40.014333 ], [ -75.03867, 40.01427 ], [ -75.040379, 40.013612 ], [ -75.041604, 40.013088 ], [ -75.042634, 40.012568 ], [ -75.043188, 40.012299 ], [ -75.043471, 40.012168 ], [ -75.045951, 40.010864 ], [ -75.047007, 40.0103 ], [ -75.047313, 40.010119 ], [ -75.048024, 40.00972 ], [ -75.048831, 40.009182 ], [ -75.049939, 40.008381 ], [ -75.05092, 40.007624 ], [ -75.051711, 40.006991 ], [ -75.052356, 40.006385 ], [ -75.052664, 40.006007 ], [ -75.052878, 40.005745 ], [ -75.053945, 40.004123 ], [ -75.054221, 40.003693 ], [ -75.055162, 40.002395 ], [ -75.056027, 40.000919 ], [ -75.056935, 39.999414 ], [ -75.058089, 39.997404 ], [ -75.05843, 39.996665 ], [ -75.058819, 39.995719 ], [ -75.059397, 39.99419 ], [ -75.059785, 39.99326 ], [ -75.060082, 39.992567 ], [ -75.060639, 39.99148 ], [ -75.061113, 39.990555 ], [ -75.062614, 39.988156 ], [ -75.064149, 39.98653 ], [ -75.065512, 39.985074 ], [ -75.065774, 39.984779 ], [ -75.065877, 39.984698 ], [ -75.067816, 39.983281 ], [ -75.068088, 39.983082 ], [ -75.068781, 39.982506 ], [ -75.069392, 39.981999 ], [ -75.070138, 39.981444 ], [ -75.0712, 39.980737 ], [ -75.072237, 39.980125 ], [ -75.073231, 39.979559 ], [ -75.074497, 39.978937 ], [ -75.075823, 39.978347 ], [ -75.077229, 39.977823 ], [ -75.07841, 39.977418 ], [ -75.0802, 39.97702 ], [ -75.081218, 39.976673 ], [ -75.082576, 39.976402 ], [ -75.086391, 39.975666 ], [ -75.088133, 39.975365 ], [ -75.091542, 39.974776 ], [ -75.092492, 39.974613 ], [ -75.093469, 39.974446 ], [ -75.094015, 39.974338 ], [ -75.094557, 39.974232 ], [ -75.096372, 39.973981 ], [ -75.097389, 39.973705 ], [ -75.098464, 39.973414 ], [ -75.099181, 39.973258 ], [ -75.101352, 39.972719 ], [ -75.103042, 39.972258 ], [ -75.105077, 39.971596 ], [ -75.106755, 39.970967 ], [ -75.10767, 39.970612 ], [ -75.108452, 39.970309 ], [ -75.110513, 39.96951 ], [ -75.112887, 39.968531 ], [ -75.118822, 39.965947 ], [ -75.119154, 39.965803 ], [ -75.119448, 39.965675 ], [ -75.123367, 39.963776 ], [ -75.1243, 39.963299 ], [ -75.125777, 39.962544 ], [ -75.127775, 39.961522 ], [ -75.129088, 39.960709 ], [ -75.12983, 39.960217 ], [ -75.130495, 39.959596 ], [ -75.13088, 39.959144 ], [ -75.13108, 39.958909 ], [ -75.131538, 39.958283 ], [ -75.132268, 39.957043 ], [ -75.132639, 39.956381 ], [ -75.133347, 39.955113 ], [ -75.133698, 39.95462 ], [ -75.13376, 39.95446 ], [ -75.133855, 39.954217 ], [ -75.134242, 39.953419 ], [ -75.134455, 39.952995 ], [ -75.134515, 39.952879 ], [ -75.134688, 39.952498 ], [ -75.134878, 39.952076 ], [ -75.135319, 39.950813 ], [ -75.135741, 39.949519 ], [ -75.135761, 39.949452 ], [ -75.135805, 39.949233 ], [ -75.135891, 39.948885 ], [ -75.136037, 39.948269 ], [ -75.136171, 39.947476 ], [ -75.136288, 39.946588 ], [ -75.136316, 39.945841 ], [ -75.136227, 39.944932 ], [ -75.13614, 39.944416 ], [ -75.135966, 39.943289 ], [ -75.135861, 39.942649 ], [ -75.135763, 39.941963 ], [ -75.135699, 39.940795 ], [ -75.135722, 39.940149 ], [ -75.135714, 39.93948 ], [ -75.135745, 39.938737 ], [ -75.1358, 39.937434 ], [ -75.135838, 39.936548 ], [ -75.135928, 39.934361 ], [ -75.135954, 39.933803 ], [ -75.135912, 39.932445 ], [ -75.13578, 39.931572 ], [ -75.135608, 39.930657 ], [ -75.13531, 39.929285 ], [ -75.135178, 39.928698 ], [ -75.134654, 39.927369 ], [ -75.134119, 39.926086 ], [ -75.134008, 39.925824 ], [ -75.133569, 39.924859 ], [ -75.132235, 39.921932 ], [ -75.132176, 39.921804 ], [ -75.131379, 39.920053 ], [ -75.131045, 39.919208 ], [ -75.130757, 39.91848 ], [ -75.130485, 39.917693 ], [ -75.13035, 39.917404 ], [ -75.130187, 39.916669 ], [ -75.130059, 39.91615 ], [ -75.12999, 39.915885 ], [ -75.129785, 39.914806 ], [ -75.129683, 39.914224 ], [ -75.129514, 39.913218 ], [ -75.129383, 39.912324 ], [ -75.129299, 39.911304 ], [ -75.129239, 39.910173 ], [ -75.129197, 39.909122 ], [ -75.129232, 39.908216 ], [ -75.129275, 39.907481 ], [ -75.129284, 39.90739 ], [ -75.129396, 39.906629 ], [ -75.129483, 39.906221 ], [ -75.129649, 39.905426 ], [ -75.129673, 39.905329 ], [ -75.129704, 39.905206 ], [ -75.129845, 39.904635 ], [ -75.130127, 39.903735 ], [ -75.130409, 39.902866 ], [ -75.130544, 39.902537 ], [ -75.131232, 39.900785 ], [ -75.131368, 39.900443 ], [ -75.131755, 39.89954 ], [ -75.132295, 39.898327 ], [ -75.133203, 39.896264 ], [ -75.13459, 39.893621 ], [ -75.134996, 39.892857 ], [ -75.135568, 39.891776 ], [ -75.135853, 39.891266 ], [ -75.136286, 39.890751 ], [ -75.13689, 39.890081 ], [ -75.13773, 39.889177 ], [ -75.139019, 39.887902 ], [ -75.139555, 39.887374 ], [ -75.140389, 39.886613 ], [ -75.141117, 39.88593 ], [ -75.142343, 39.88521 ], [ -75.143306, 39.88485 ], [ -75.144367, 39.884424 ], [ -75.144606, 39.884339 ], [ -75.145259, 39.884237 ], [ -75.146164, 39.884104 ], [ -75.146947, 39.884061 ], [ -75.149247, 39.883935 ], [ -75.152372, 39.883751 ], [ -75.157631, 39.883377 ], [ -75.159972, 39.883192 ], [ -75.162171, 39.882907 ], [ -75.162885, 39.882789 ], [ -75.163812, 39.882634 ], [ -75.164187, 39.882571 ], [ -75.165315, 39.882353 ], [ -75.166995, 39.88203 ], [ -75.169655, 39.881581 ], [ -75.172144, 39.881287 ], [ -75.174311, 39.881085 ], [ -75.175045, 39.881018 ], [ -75.176887, 39.8809 ], [ -75.178233, 39.880803 ], [ -75.179287, 39.880763 ], [ -75.183784, 39.880892 ], [ -75.184568, 39.880913 ], [ -75.184947, 39.880886 ], [ -75.185417, 39.880853 ], [ -75.186266, 39.880776 ], [ -75.187035, 39.880635 ], [ -75.187221, 39.880583 ], [ -75.187661, 39.880458 ], [ -75.188331, 39.880234 ], [ -75.18898, 39.879994 ], [ -75.190135, 39.879463 ], [ -75.193413, 39.87802 ], [ -75.194229, 39.877661 ], [ -75.195229, 39.877208 ], [ -75.195804, 39.876899 ], [ -75.197007, 39.87626 ], [ -75.198185, 39.875682 ], [ -75.199428, 39.875009 ], [ -75.200577, 39.874436 ], [ -75.200649, 39.8744 ], [ -75.202103, 39.873621 ], [ -75.205096, 39.87197 ], [ -75.206657, 39.871082 ], [ -75.207312, 39.870667 ], [ -75.207946, 39.870283 ], [ -75.211975, 39.867464 ], [ -75.216039, 39.871115 ], [ -75.216022, 39.871358 ], [ -75.216015, 39.871468 ], [ -75.215801, 39.874828 ], [ -75.215787, 39.875052 ], [ -75.215727, 39.876018 ], [ -75.215722, 39.876087 ], [ -75.2159, 39.876059 ], [ -75.216046, 39.876024 ], [ -75.216203, 39.875991 ], [ -75.216348, 39.875957 ], [ -75.21637, 39.875952 ], [ -75.216702, 39.875876 ], [ -75.216844, 39.875843 ], [ -75.217013, 39.875807 ], [ -75.217515, 39.875745 ], [ -75.217701, 39.87572 ], [ -75.217858, 39.875701 ], [ -75.218034, 39.875683 ], [ -75.21832, 39.875678 ], [ -75.218824, 39.875672 ], [ -75.218885, 39.875673 ], [ -75.218921, 39.875669 ], [ -75.219241, 39.875591 ], [ -75.219445, 39.875543 ], [ -75.21962, 39.875502 ], [ -75.219648, 39.875491 ], [ -75.219703, 39.875476 ], [ -75.219735, 39.875473 ], [ -75.21977, 39.875479 ], [ -75.220865, 39.87557 ], [ -75.221041, 39.875586 ], [ -75.221229, 39.875602 ], [ -75.221275, 39.875606 ], [ -75.222081, 39.875674 ], [ -75.222697, 39.87573 ], [ -75.222869, 39.87575 ], [ -75.223065, 39.875774 ], [ -75.223152, 39.875784 ], [ -75.223763, 39.875858 ], [ -75.224653, 39.876023 ], [ -75.224857, 39.87606 ], [ -75.225028, 39.876093 ], [ -75.225951, 39.876266 ], [ -75.226844, 39.876402 ], [ -75.22689, 39.876404 ], [ -75.227119, 39.876436 ], [ -75.22847, 39.876631 ], [ -75.228724, 39.876667 ], [ -75.228905, 39.876692 ], [ -75.229985, 39.876847 ], [ -75.230475, 39.876889 ], [ -75.230644, 39.876901 ], [ -75.230772, 39.876912 ], [ -75.230806, 39.876915 ], [ -75.230846, 39.876919 ], [ -75.230996, 39.876933 ], [ -75.231055, 39.876938 ], [ -75.23187, 39.87701 ], [ -75.231929, 39.877016 ], [ -75.23231, 39.877056 ], [ -75.232549, 39.877082 ], [ -75.232657, 39.877093 ], [ -75.232814, 39.877111 ], [ -75.232991, 39.877128 ], [ -75.233271, 39.877154 ], [ -75.233956, 39.877177 ], [ -75.234018, 39.877179 ], [ -75.234122, 39.877181 ], [ -75.234302, 39.877136 ], [ -75.23448, 39.877094 ], [ -75.234652, 39.877053 ], [ -75.234684, 39.877045 ], [ -75.235024, 39.876964 ], [ -75.235537, 39.876751 ], [ -75.235795, 39.876579 ], [ -75.235928, 39.876488 ], [ -75.235966, 39.876461 ], [ -75.23605, 39.876404 ], [ -75.23637, 39.876187 ], [ -75.23664, 39.875736 ], [ -75.236713, 39.875614 ], [ -75.236774, 39.875475 ], [ -75.236785, 39.875446 ], [ -75.236932, 39.875116 ], [ -75.2375, 39.87508 ], [ -75.23759, 39.874982 ], [ -75.237536, 39.874911 ], [ -75.2375, 39.874867 ], [ -75.237459, 39.874804 ], [ -75.23811, 39.874593 ], [ -75.238246, 39.874446 ], [ -75.238325, 39.874362 ], [ -75.238376, 39.874301 ], [ -75.238688, 39.873959 ], [ -75.238992, 39.873836 ], [ -75.239171, 39.873609 ], [ -75.23926, 39.87349 ], [ -75.239348, 39.873372 ], [ -75.239404, 39.873299 ], [ -75.240098, 39.87303 ], [ -75.240105, 39.872858 ], [ -75.240101, 39.872731 ], [ -75.2401, 39.872629 ], [ -75.240101, 39.872597 ], [ -75.24047, 39.872381 ], [ -75.240898, 39.8724 ], [ -75.240937, 39.872405 ], [ -75.241088, 39.872438 ], [ -75.241216, 39.872466 ], [ -75.241371, 39.872501 ], [ -75.241419, 39.872511 ], [ -75.241555, 39.87254 ], [ -75.241746, 39.872585 ], [ -75.242218, 39.872777 ], [ -75.24229, 39.872808 ], [ -75.242568, 39.872955 ], [ -75.242694, 39.873021 ], [ -75.242729, 39.873039 ], [ -75.246626, 39.875013 ], [ -75.246734, 39.875068 ], [ -75.246776, 39.875103 ], [ -75.246824, 39.875142 ], [ -75.247531, 39.875734 ], [ -75.248098, 39.876208 ], [ -75.2483, 39.876377 ], [ -75.248404, 39.876464 ], [ -75.248431, 39.876485 ], [ -75.249644, 39.876311 ], [ -75.250302, 39.876217 ], [ -75.251301, 39.876074 ], [ -75.251751, 39.876009 ], [ -75.252257, 39.875937 ], [ -75.252725, 39.875965 ], [ -75.252901, 39.875975 ], [ -75.252934, 39.875977 ], [ -75.253017, 39.875983 ], [ -75.253217, 39.875996 ], [ -75.253456, 39.876011 ], [ -75.253515, 39.876015 ], [ -75.253665, 39.876023 ], [ -75.253737, 39.876027 ], [ -75.253986, 39.876042 ], [ -75.254291, 39.876061 ], [ -75.254652, 39.876083 ], [ -75.255084, 39.876109 ], [ -75.255435, 39.87613 ], [ -75.256127, 39.876172 ], [ -75.257146, 39.876234 ], [ -75.25741, 39.87625 ], [ -75.257719, 39.876269 ], [ -75.257852, 39.876277 ], [ -75.258571, 39.876321 ], [ -75.259016, 39.876348 ], [ -75.259273, 39.876363 ], [ -75.259723, 39.876391 ], [ -75.259854, 39.876399 ], [ -75.259899, 39.876402 ], [ -75.261245, 39.876484 ], [ -75.261509, 39.876499 ], [ -75.261651, 39.876508 ], [ -75.26222, 39.876542 ], [ -75.262476, 39.876558 ], [ -75.262528, 39.876561 ], [ -75.262539, 39.876578 ], [ -75.262559, 39.876615 ], [ -75.262655, 39.876786 ], [ -75.263467, 39.878226 ], [ -75.264832, 39.880647 ], [ -75.265003, 39.880983 ], [ -75.265078, 39.881462 ], [ -75.265112, 39.881657 ], [ -75.264563, 39.882123 ], [ -75.264336, 39.882258 ], [ -75.263082, 39.882356 ], [ -75.262263, 39.882572 ], [ -75.261946, 39.882889 ], [ -75.261886, 39.883069 ], [ -75.261965, 39.88324 ], [ -75.262433, 39.883634 ], [ -75.264184, 39.884163 ], [ -75.264408, 39.88432 ], [ -75.264491, 39.884544 ], [ -75.264602, 39.884737 ], [ -75.264448, 39.884858 ], [ -75.264227, 39.885002 ], [ -75.263153, 39.885301 ], [ -75.26273, 39.885554 ], [ -75.262617, 39.885805 ], [ -75.262683, 39.886026 ], [ -75.262804, 39.886083 ], [ -75.26282, 39.886084 ], [ -75.26284, 39.886135 ], [ -75.26296, 39.886181 ], [ -75.263807, 39.886166 ], [ -75.264088, 39.886094 ], [ -75.264385, 39.886162 ], [ -75.264549, 39.886226 ], [ -75.264719, 39.886356 ], [ -75.264817, 39.886431 ], [ -75.264869, 39.886523 ], [ -75.264951, 39.886655 ], [ -75.265001, 39.886734 ], [ -75.265056, 39.886819 ], [ -75.265112, 39.886943 ], [ -75.265123, 39.886967 ], [ -75.265153, 39.887142 ], [ -75.265147, 39.887317 ], [ -75.265113, 39.887524 ], [ -75.265084, 39.887578 ], [ -75.26501, 39.887706 ], [ -75.264917, 39.887873 ], [ -75.264878, 39.887927 ], [ -75.264743, 39.888068 ], [ -75.264613, 39.888205 ], [ -75.264463, 39.88832 ], [ -75.264276, 39.888401 ], [ -75.264012, 39.888457 ], [ -75.26374, 39.888473 ], [ -75.26339, 39.888449 ], [ -75.26299, 39.888401 ], [ -75.262692, 39.888343 ], [ -75.262485, 39.888406 ], [ -75.262306, 39.888537 ], [ -75.262212, 39.888692 ], [ -75.262145, 39.888905 ], [ -75.262108, 39.889141 ], [ -75.262092, 39.889355 ], [ -75.262097, 39.889664 ], [ -75.262111, 39.889896 ], [ -75.262135, 39.890093 ], [ -75.26212, 39.890267 ], [ -75.262112, 39.890465 ], [ -75.262045, 39.890688 ], [ -75.261891, 39.891299 ], [ -75.261865, 39.891444 ], [ -75.2618, 39.891618 ], [ -75.261743, 39.891774 ], [ -75.261613, 39.891884 ], [ -75.261512, 39.891938 ], [ -75.261321, 39.891984 ], [ -75.261107, 39.892076 ], [ -75.260738, 39.892174 ], [ -75.260147, 39.892296 ], [ -75.259935, 39.892325 ], [ -75.259751, 39.892349 ], [ -75.259547, 39.892351 ], [ -75.259354, 39.892397 ], [ -75.259112, 39.892436 ], [ -75.258962, 39.892522 ], [ -75.258782, 39.892666 ], [ -75.258571, 39.892802 ], [ -75.25839, 39.892978 ], [ -75.258214, 39.893159 ], [ -75.258023, 39.893359 ], [ -75.257831, 39.893562 ], [ -75.257671, 39.893727 ], [ -75.257434, 39.894003 ], [ -75.256908, 39.894538 ], [ -75.256741, 39.894726 ], [ -75.256662, 39.894848 ], [ -75.256659, 39.894933 ], [ -75.256708, 39.89503 ], [ -75.256789, 39.895189 ], [ -75.256967, 39.895356 ], [ -75.257123, 39.895461 ], [ -75.257272, 39.89556 ], [ -75.257389, 39.895704 ], [ -75.257362, 39.895844 ], [ -75.257282, 39.895984 ], [ -75.257277, 39.895995 ], [ -75.257147, 39.89615 ], [ -75.256934, 39.896359 ], [ -75.256761, 39.896495 ], [ -75.25645, 39.896843 ], [ -75.256235, 39.897097 ], [ -75.25609, 39.89729 ], [ -75.255982, 39.897468 ], [ -75.255804, 39.897722 ], [ -75.255618, 39.897943 ], [ -75.255506, 39.898183 ], [ -75.25533, 39.89842 ], [ -75.255224, 39.898491 ], [ -75.255156, 39.898585 ], [ -75.255095, 39.898666 ], [ -75.255093, 39.898756 ], [ -75.255107, 39.898842 ], [ -75.255115, 39.898882 ], [ -75.255131, 39.898899 ], [ -75.255174, 39.898943 ], [ -75.255188, 39.898979 ], [ -75.25525, 39.899137 ], [ -75.255375, 39.899291 ], [ -75.255553, 39.899499 ], [ -75.25561, 39.899576 ], [ -75.255597, 39.899596 ], [ -75.253563, 39.901826 ], [ -75.25179, 39.903835 ], [ -75.251288, 39.904403 ], [ -75.252971, 39.905309 ], [ -75.253492, 39.905585 ], [ -75.25256, 39.90655 ], [ -75.2525, 39.906614 ], [ -75.25248, 39.906633 ], [ -75.252398, 39.906636 ], [ -75.25233, 39.906644 ], [ -75.252156, 39.906665 ], [ -75.251995, 39.906688 ], [ -75.251759, 39.906744 ], [ -75.251633, 39.906814 ], [ -75.251501, 39.906901 ], [ -75.251307, 39.907031 ], [ -75.251059, 39.907178 ], [ -75.250872, 39.907285 ], [ -75.250716, 39.907366 ], [ -75.250446, 39.907539 ], [ -75.250319, 39.907626 ], [ -75.250271, 39.907708 ], [ -75.250224, 39.907808 ], [ -75.250205, 39.907915 ], [ -75.250183, 39.908061 ], [ -75.250198, 39.908286 ], [ -75.250196, 39.908323 ], [ -75.250193, 39.908448 ], [ -75.250168, 39.908565 ], [ -75.25012, 39.90872 ], [ -75.25005, 39.908881 ], [ -75.250008, 39.909036 ], [ -75.249941, 39.909146 ], [ -75.249901, 39.909268 ], [ -75.249929, 39.909352 ], [ -75.250002, 39.90943 ], [ -75.250045, 39.909459 ], [ -75.250158, 39.9095 ], [ -75.250289, 39.90953 ], [ -75.250476, 39.909532 ], [ -75.250656, 39.909568 ], [ -75.250885, 39.909633 ], [ -75.251107, 39.909708 ], [ -75.251229, 39.909776 ], [ -75.251298, 39.909855 ], [ -75.251288, 39.909983 ], [ -75.251498, 39.910051 ], [ -75.251268, 39.910031 ], [ -75.251237, 39.91011 ], [ -75.251123, 39.910248 ], [ -75.251001, 39.910376 ], [ -75.250871, 39.910532 ], [ -75.25072, 39.910659 ], [ -75.250615, 39.91077 ], [ -75.250537, 39.910887 ], [ -75.250401, 39.911042 ], [ -75.250353, 39.911077 ], [ -75.250194, 39.911196 ], [ -75.249926, 39.911293 ], [ -75.249748, 39.911369 ], [ -75.249518, 39.911477 ], [ -75.249332, 39.911553 ], [ -75.249161, 39.91164 ], [ -75.24898, 39.911749 ], [ -75.248854, 39.911854 ], [ -75.248762, 39.911983 ], [ -75.248719, 39.912139 ], [ -75.248685, 39.912302 ], [ -75.248598, 39.912504 ], [ -75.248558, 39.912604 ], [ -75.24851, 39.912722 ], [ -75.248432, 39.91284 ], [ -75.248377, 39.912934 ], [ -75.248295, 39.913012 ], [ -75.248212, 39.913077 ], [ -75.248056, 39.913165 ], [ -75.247831, 39.913285 ], [ -75.2476, 39.913388 ], [ -75.2474, 39.913502 ], [ -75.2472, 39.913578 ], [ -75.247191, 39.913588 ], [ -75.247116, 39.913678 ], [ -75.247068, 39.913778 ], [ -75.247063, 39.913907 ], [ -75.247117, 39.914043 ], [ -75.247222, 39.914164 ], [ -75.247323, 39.914286 ], [ -75.247592, 39.914362 ], [ -75.247569, 39.914488 ], [ -75.247583, 39.914563 ], [ -75.247594, 39.914611 ], [ -75.247631, 39.914636 ], [ -75.247706, 39.914722 ], [ -75.247715, 39.914837 ], [ -75.247654, 39.914955 ], [ -75.247555, 39.915078 ], [ -75.247485, 39.915213 ], [ -75.247347, 39.915399 ], [ -75.247187, 39.915632 ], [ -75.247136, 39.915727 ], [ -75.247056, 39.915851 ], [ -75.246987, 39.91593 ], [ -75.246919, 39.916005 ], [ -75.246842, 39.916087 ], [ -75.246781, 39.916165 ], [ -75.246752, 39.916232 ], [ -75.246763, 39.916329 ], [ -75.246787, 39.916448 ], [ -75.246834, 39.916559 ], [ -75.246882, 39.91672 ], [ -75.24694, 39.916871 ], [ -75.246974, 39.916939 ], [ -75.247, 39.916967 ], [ -75.247039, 39.916991 ], [ -75.247102, 39.917027 ], [ -75.247155, 39.917062 ], [ -75.247187, 39.917094 ], [ -75.2472, 39.917135 ], [ -75.24721, 39.917182 ], [ -75.247192, 39.917211 ], [ -75.247172, 39.917236 ], [ -75.247239, 39.917402 ], [ -75.247303, 39.917615 ], [ -75.247307, 39.917633 ], [ -75.247347, 39.917785 ], [ -75.247357, 39.917993 ], [ -75.247347, 39.91843 ], [ -75.247341, 39.918541 ], [ -75.247377, 39.918688 ], [ -75.247423, 39.918825 ], [ -75.247551, 39.91902 ], [ -75.247601, 39.919076 ], [ -75.247456, 39.919079 ], [ -75.24745, 39.919159 ], [ -75.247484, 39.919242 ], [ -75.247496, 39.91927 ], [ -75.247583, 39.919399 ], [ -75.247622, 39.919517 ], [ -75.247623, 39.919668 ], [ -75.247595, 39.919902 ], [ -75.247581, 39.919982 ], [ -75.247527, 39.920103 ], [ -75.247487, 39.920206 ], [ -75.247476, 39.920328 ], [ -75.247465, 39.920454 ], [ -75.247462, 39.92052 ], [ -75.24746, 39.920586 ], [ -75.247468, 39.920718 ], [ -75.247468, 39.920972 ], [ -75.247459, 39.921343 ], [ -75.247484, 39.921499 ], [ -75.247507, 39.92161 ], [ -75.247516, 39.921656 ], [ -75.247514, 39.92168 ], [ -75.247511, 39.921709 ], [ -75.247506, 39.921773 ], [ -75.247472, 39.921881 ], [ -75.247392, 39.922048 ], [ -75.247316, 39.92214 ], [ -75.24729, 39.922168 ], [ -75.247164, 39.922283 ], [ -75.247069, 39.922375 ], [ -75.246936, 39.922495 ], [ -75.246642, 39.92277 ], [ -75.246521, 39.92289 ], [ -75.246363, 39.923056 ], [ -75.246267, 39.923171 ], [ -75.246188, 39.923306 ], [ -75.246159, 39.923446 ], [ -75.246141, 39.923611 ], [ -75.246134, 39.923794 ], [ -75.24613, 39.923907 ], [ -75.246095, 39.924009 ], [ -75.246073, 39.924126 ], [ -75.246032, 39.924238 ], [ -75.246001, 39.924351 ], [ -75.245993, 39.924369 ], [ -75.245943, 39.924449 ], [ -75.245928, 39.924474 ], [ -75.245865, 39.924581 ], [ -75.245815, 39.924662 ], [ -75.245794, 39.924697 ], [ -75.245748, 39.924782 ], [ -75.245725, 39.924823 ], [ -75.245679, 39.924882 ], [ -75.245636, 39.924938 ], [ -75.24558, 39.92501 ], [ -75.245552, 39.925045 ], [ -75.245437, 39.925164 ], [ -75.245263, 39.925415 ], [ -75.245197, 39.925549 ], [ -75.245127, 39.925661 ], [ -75.24505, 39.925767 ], [ -75.244991, 39.925841 ], [ -75.244868, 39.925895 ], [ -75.244762, 39.925954 ], [ -75.244625, 39.926003 ], [ -75.244519, 39.926061 ], [ -75.2444, 39.926134 ], [ -75.244336, 39.92625 ], [ -75.244301, 39.926353 ], [ -75.244329, 39.926476 ], [ -75.244412, 39.926572 ], [ -75.244499, 39.926642 ], [ -75.244507, 39.926649 ], [ -75.244576, 39.926754 ], [ -75.244596, 39.926858 ], [ -75.244579, 39.927003 ], [ -75.244579, 39.927177 ], [ -75.24455, 39.927275 ], [ -75.244498, 39.927406 ], [ -75.244481, 39.927434 ], [ -75.244426, 39.927527 ], [ -75.244341, 39.927656 ], [ -75.244269, 39.927796 ], [ -75.244199, 39.927888 ], [ -75.24412, 39.928009 ], [ -75.244055, 39.928149 ], [ -75.244001, 39.928364 ], [ -75.243985, 39.928476 ], [ -75.243965, 39.928645 ], [ -75.243967, 39.928805 ], [ -75.24397, 39.929177 ], [ -75.243966, 39.929428 ], [ -75.243967, 39.929468 ], [ -75.243967, 39.929499 ], [ -75.243966, 39.929532 ], [ -75.243967, 39.929604 ], [ -75.243976, 39.929678 ], [ -75.243981, 39.929713 ], [ -75.244009, 39.929793 ], [ -75.244099, 39.929857 ], [ -75.244189, 39.929901 ], [ -75.244278, 39.929964 ], [ -75.244355, 39.930041 ], [ -75.244405, 39.93016 ], [ -75.244427, 39.930287 ], [ -75.244381, 39.930399 ], [ -75.244274, 39.930486 ], [ -75.244131, 39.930563 ], [ -75.243949, 39.930653 ], [ -75.243813, 39.93073 ], [ -75.243694, 39.930821 ], [ -75.243643, 39.930897 ], [ -75.243635, 39.930908 ], [ -75.243608, 39.931079 ], [ -75.243564, 39.931197 ], [ -75.243526, 39.93134 ], [ -75.243488, 39.931468 ], [ -75.243451, 39.931577 ], [ -75.243438, 39.931686 ], [ -75.243425, 39.931779 ], [ -75.243423, 39.931837 ], [ -75.243369, 39.931908 ], [ -75.243306, 39.931975 ], [ -75.243213, 39.932032 ], [ -75.243133, 39.932085 ], [ -75.243079, 39.932175 ], [ -75.242969, 39.932299 ], [ -75.242881, 39.932441 ], [ -75.242763, 39.932612 ], [ -75.242669, 39.932779 ], [ -75.242577, 39.932879 ], [ -75.242503, 39.932964 ], [ -75.242402, 39.933088 ], [ -75.242342, 39.933187 ], [ -75.242296, 39.933288 ], [ -75.242229, 39.933378 ], [ -75.242186, 39.933426 ], [ -75.242075, 39.933491 ], [ -75.241952, 39.933535 ], [ -75.241909, 39.933544 ], [ -75.241847, 39.93347 ], [ -75.241774, 39.933482 ], [ -75.241736, 39.933579 ], [ -75.241678, 39.933582 ], [ -75.241521, 39.933588 ], [ -75.241363, 39.933608 ], [ -75.241158, 39.933629 ], [ -75.240944, 39.933649 ], [ -75.240736, 39.933646 ], [ -75.240693, 39.933638 ], [ -75.2405, 39.933604 ], [ -75.240447, 39.933588 ], [ -75.240296, 39.933541 ], [ -75.240239, 39.933523 ], [ -75.240161, 39.933492 ], [ -75.239999, 39.933432 ], [ -75.23992, 39.933402 ], [ -75.239647, 39.933315 ], [ -75.239468, 39.933221 ], [ -75.239344, 39.933125 ], [ -75.239184, 39.933001 ], [ -75.238947, 39.93282 ], [ -75.238759, 39.932704 ], [ -75.238611, 39.93264 ], [ -75.238444, 39.932597 ], [ -75.238268, 39.932552 ], [ -75.238104, 39.932508 ], [ -75.23795, 39.932472 ], [ -75.237734, 39.932497 ], [ -75.23756, 39.932522 ], [ -75.237436, 39.932557 ], [ -75.237324, 39.932621 ], [ -75.237217, 39.932694 ], [ -75.237122, 39.932804 ], [ -75.237013, 39.932924 ], [ -75.23691, 39.933073 ], [ -75.23679, 39.933258 ], [ -75.236717, 39.933407 ], [ -75.236657, 39.933547 ], [ -75.236642, 39.933791 ], [ -75.236647, 39.933897 ], [ -75.236662, 39.934088 ], [ -75.236651, 39.934205 ], [ -75.236603, 39.934345 ], [ -75.236584, 39.934421 ], [ -75.236553, 39.934541 ], [ -75.236524, 39.934682 ], [ -75.236469, 39.93485 ], [ -75.236393, 39.935173 ], [ -75.23632, 39.935326 ], [ -75.23617, 39.935408 ], [ -75.236099, 39.935459 ], [ -75.236013, 39.935517 ], [ -75.235889, 39.935616 ], [ -75.235667, 39.935709 ], [ -75.235623, 39.935732 ], [ -75.235458, 39.935823 ], [ -75.235263, 39.93596 ], [ -75.234979, 39.936222 ], [ -75.23492, 39.936333 ], [ -75.234921, 39.936451 ], [ -75.234915, 39.936592 ], [ -75.234845, 39.93668 ], [ -75.234773, 39.936753 ], [ -75.234742, 39.936884 ], [ -75.234787, 39.937041 ], [ -75.23478, 39.937186 ], [ -75.2348, 39.937337 ], [ -75.234868, 39.937456 ], [ -75.234919, 39.937551 ], [ -75.234967, 39.93775 ], [ -75.234981, 39.938023 ], [ -75.235002, 39.938127 ], [ -75.235071, 39.938204 ], [ -75.235161, 39.938271 ], [ -75.235293, 39.938321 ], [ -75.235488, 39.938359 ], [ -75.235779, 39.938393 ], [ -75.235944, 39.938411 ], [ -75.236144, 39.938429 ], [ -75.236345, 39.938457 ], [ -75.236498, 39.938461 ], [ -75.236682, 39.938446 ], [ -75.236878, 39.938432 ], [ -75.237144, 39.938382 ], [ -75.237447, 39.938323 ], [ -75.237621, 39.938275 ], [ -75.237769, 39.93825 ], [ -75.237964, 39.938226 ], [ -75.238172, 39.93823 ], [ -75.238326, 39.938224 ], [ -75.238498, 39.938204 ], [ -75.238736, 39.938181 ], [ -75.238871, 39.938156 ], [ -75.239006, 39.93814 ], [ -75.239183, 39.938149 ], [ -75.239336, 39.938157 ], [ -75.239428, 39.938155 ], [ -75.23957, 39.938039 ], [ -75.239584, 39.938043 ], [ -75.239662, 39.938069 ], [ -75.239761, 39.938109 ], [ -75.239834, 39.938144 ], [ -75.239857, 39.938158 ], [ -75.239926, 39.938166 ], [ -75.240042, 39.9382 ], [ -75.240145, 39.938238 ], [ -75.24021, 39.938283 ], [ -75.240258, 39.938336 ], [ -75.240409, 39.938457 ], [ -75.240591, 39.938635 ], [ -75.240711, 39.938727 ], [ -75.240763, 39.938794 ], [ -75.24076, 39.938869 ], [ -75.240738, 39.938967 ], [ -75.240697, 39.939075 ], [ -75.240626, 39.939191 ], [ -75.240543, 39.939283 ], [ -75.240424, 39.939374 ], [ -75.240342, 39.939462 ], [ -75.24024, 39.939568 ], [ -75.240143, 39.939707 ], [ -75.240016, 39.93984 ], [ -75.23994, 39.939977 ], [ -75.239903, 39.940035 ], [ -75.239879, 39.940072 ], [ -75.239836, 39.940121 ], [ -75.239796, 39.940165 ], [ -75.239636, 39.940302 ], [ -75.239527, 39.940432 ], [ -75.239411, 39.940608 ], [ -75.239398, 39.940744 ], [ -75.239431, 39.94089 ], [ -75.239461, 39.941027 ], [ -75.239494, 39.94116 ], [ -75.239561, 39.941298 ], [ -75.239631, 39.941421 ], [ -75.239735, 39.941593 ], [ -75.239845, 39.941727 ], [ -75.239985, 39.94189 ], [ -75.240074, 39.941995 ], [ -75.240149, 39.942086 ], [ -75.240251, 39.94214 ], [ -75.240367, 39.942171 ], [ -75.240519, 39.942188 ], [ -75.240582, 39.942196 ], [ -75.240789, 39.942223 ], [ -75.240953, 39.942245 ], [ -75.241179, 39.942264 ], [ -75.2414, 39.942273 ], [ -75.241446, 39.942274 ], [ -75.24158, 39.942251 ], [ -75.241823, 39.942234 ], [ -75.242029, 39.94223 ], [ -75.242283, 39.942231 ], [ -75.242599, 39.942247 ], [ -75.242953, 39.942253 ], [ -75.243026, 39.942211 ], [ -75.243113, 39.942232 ], [ -75.243204, 39.942276 ], [ -75.243341, 39.942326 ], [ -75.243364, 39.942355 ], [ -75.243542, 39.942306 ], [ -75.243424, 39.942405 ], [ -75.243531, 39.942442 ], [ -75.243843, 39.942477 ], [ -75.244068, 39.942501 ], [ -75.24441, 39.942551 ], [ -75.244659, 39.942589 ], [ -75.245012, 39.942597 ], [ -75.245226, 39.942616 ], [ -75.245408, 39.94261 ], [ -75.245561, 39.942609 ], [ -75.24574, 39.942604 ], [ -75.245885, 39.942597 ], [ -75.246051, 39.942606 ], [ -75.24619, 39.942613 ], [ -75.246348, 39.942645 ], [ -75.246469, 39.942667 ], [ -75.246566, 39.942702 ], [ -75.246661, 39.942765 ], [ -75.246743, 39.942856 ], [ -75.246822, 39.94297 ], [ -75.246872, 39.943131 ], [ -75.246964, 39.943265 ], [ -75.246978, 39.943292 ], [ -75.247021, 39.943379 ], [ -75.247028, 39.943414 ], [ -75.247041, 39.943478 ], [ -75.247048, 39.94353 ], [ -75.247051, 39.943558 ], [ -75.247076, 39.943616 ], [ -75.247106, 39.943681 ], [ -75.247191, 39.943867 ], [ -75.247208, 39.943904 ], [ -75.247302, 39.94401 ], [ -75.247377, 39.944138 ], [ -75.247397, 39.944208 ], [ -75.247421, 39.94429 ], [ -75.247466, 39.94435 ], [ -75.247508, 39.944405 ], [ -75.247635, 39.944523 ], [ -75.247647, 39.944511 ], [ -75.247767, 39.944637 ], [ -75.247907, 39.944777 ], [ -75.2481, 39.944923 ], [ -75.248176, 39.94501 ], [ -75.248222, 39.9451 ], [ -75.24824, 39.945228 ], [ -75.248327, 39.945342 ], [ -75.248421, 39.945454 ], [ -75.24847, 39.945485 ], [ -75.248507, 39.94551 ], [ -75.248569, 39.945551 ], [ -75.248713, 39.945668 ], [ -75.248902, 39.945828 ], [ -75.249084, 39.945987 ], [ -75.249249, 39.946152 ], [ -75.249431, 39.946312 ], [ -75.249497, 39.946356 ], [ -75.249558, 39.94639 ], [ -75.249618, 39.94641 ], [ -75.249714, 39.946451 ], [ -75.249814, 39.946533 ], [ -75.249921, 39.946626 ], [ -75.24997, 39.946707 ], [ -75.250038, 39.946812 ], [ -75.250118, 39.94697 ], [ -75.250156, 39.947112 ], [ -75.250198, 39.947229 ], [ -75.250205, 39.947244 ], [ -75.250217, 39.947317 ], [ -75.25023, 39.947386 ], [ -75.250235, 39.947409 ], [ -75.250271, 39.947575 ], [ -75.250308, 39.947718 ], [ -75.250338, 39.947846 ], [ -75.250365, 39.947978 ], [ -75.250415, 39.948092 ], [ -75.250473, 39.948178 ], [ -75.250556, 39.948251 ], [ -75.250721, 39.948377 ], [ -75.250661, 39.948437 ], [ -75.250992, 39.948737 ], [ -75.251125, 39.948866 ], [ -75.251251, 39.948972 ], [ -75.251376, 39.949065 ], [ -75.251442, 39.949139 ], [ -75.251496, 39.949251 ], [ -75.251512, 39.949455 ], [ -75.251468, 39.949655 ], [ -75.251368, 39.949856 ], [ -75.25127, 39.949991 ], [ -75.251209, 39.950149 ], [ -75.251165, 39.950289 ], [ -75.251127, 39.950439 ], [ -75.25113, 39.950597 ], [ -75.251122, 39.950701 ], [ -75.251157, 39.95078 ], [ -75.251256, 39.950968 ], [ -75.25134, 39.951065 ], [ -75.251418, 39.951148 ], [ -75.251484, 39.95119 ], [ -75.251534, 39.951218 ], [ -75.25158, 39.951282 ], [ -75.251606, 39.951384 ], [ -75.251609, 39.951466 ], [ -75.251609, 39.9515 ], [ -75.251626, 39.951625 ], [ -75.251646, 39.951747 ], [ -75.251647, 39.951846 ], [ -75.251643, 39.951954 ], [ -75.251612, 39.952045 ], [ -75.251577, 39.952127 ], [ -75.251511, 39.95224 ], [ -75.25141, 39.952377 ], [ -75.251281, 39.952541 ], [ -75.251186, 39.952664 ], [ -75.251152, 39.95275 ], [ -75.251152, 39.952849 ], [ -75.251179, 39.952943 ], [ -75.251206, 39.953031 ], [ -75.251182, 39.953089 ], [ -75.251149, 39.953161 ], [ -75.2511, 39.953228 ], [ -75.251047, 39.953295 ], [ -75.250921, 39.953391 ], [ -75.250816, 39.953475 ], [ -75.250789, 39.953497 ], [ -75.250648, 39.953614 ], [ -75.250487, 39.953737 ], [ -75.250352, 39.953861 ], [ -75.250136, 39.954066 ], [ -75.250047, 39.954151 ], [ -75.250003, 39.954232 ], [ -75.249953, 39.95433 ], [ -75.249887, 39.954378 ], [ -75.249837, 39.954431 ], [ -75.249799, 39.954496 ], [ -75.249767, 39.95457 ], [ -75.249746, 39.95464 ], [ -75.24976, 39.954706 ], [ -75.249766, 39.954761 ], [ -75.24975, 39.954826 ], [ -75.249694, 39.954975 ], [ -75.249613, 39.95518 ], [ -75.249596, 39.955239 ], [ -75.249556, 39.95529 ], [ -75.249494, 39.955352 ], [ -75.249422, 39.955381 ], [ -75.249357, 39.955405 ], [ -75.24928, 39.955415 ], [ -75.249234, 39.955429 ], [ -75.249199, 39.955465 ], [ -75.249163, 39.955514 ], [ -75.249143, 39.95557 ], [ -75.249122, 39.955656 ], [ -75.249134, 39.955756 ], [ -75.249174, 39.95585 ], [ -75.249217, 39.955934 ], [ -75.249262, 39.956043 ], [ -75.249274, 39.956123 ], [ -75.249234, 39.956216 ], [ -75.249113, 39.956326 ], [ -75.249045, 39.956372 ], [ -75.248987, 39.956427 ], [ -75.248956, 39.956516 ], [ -75.248926, 39.956628 ], [ -75.248946, 39.956746 ], [ -75.249006, 39.956907 ], [ -75.249064, 39.956958 ], [ -75.249193, 39.957012 ], [ -75.249314, 39.957067 ], [ -75.2494, 39.95712 ], [ -75.249439, 39.957148 ], [ -75.249499, 39.957189 ], [ -75.249532, 39.957213 ], [ -75.249577, 39.957258 ], [ -75.249627, 39.957309 ], [ -75.249685, 39.957353 ], [ -75.249778, 39.957425 ], [ -75.250037, 39.957654 ], [ -75.250177, 39.957791 ], [ -75.250242, 39.957872 ], [ -75.250359, 39.958014 ], [ -75.250462, 39.958119 ], [ -75.250559, 39.958232 ], [ -75.250666, 39.958328 ], [ -75.250735, 39.958426 ], [ -75.250793, 39.958529 ], [ -75.250839, 39.958638 ], [ -75.250875, 39.958728 ], [ -75.250881, 39.958808 ], [ -75.250891, 39.958942 ], [ -75.250883, 39.959024 ], [ -75.25085, 39.959099 ], [ -75.250752, 39.959155 ], [ -75.250605, 39.959239 ], [ -75.250454, 39.959318 ], [ -75.250291, 39.959397 ], [ -75.25008, 39.959482 ], [ -75.249826, 39.959573 ], [ -75.249652, 39.959639 ], [ -75.249552, 39.959682 ], [ -75.249443, 39.959752 ], [ -75.249318, 39.959839 ], [ -75.249213, 39.959921 ], [ -75.249122, 39.95999 ], [ -75.248972, 39.960071 ], [ -75.248837, 39.960129 ], [ -75.248689, 39.960199 ], [ -75.248546, 39.960269 ], [ -75.248459, 39.960333 ], [ -75.248383, 39.960425 ], [ -75.248335, 39.960516 ], [ -75.248282, 39.960621 ], [ -75.248198, 39.960725 ], [ -75.248058, 39.960886 ], [ -75.247975, 39.960997 ], [ -75.247922, 39.961085 ], [ -75.247892, 39.961181 ], [ -75.247872, 39.961341 ], [ -75.247872, 39.96143 ], [ -75.247867, 39.961493 ], [ -75.247841, 39.961613 ], [ -75.247823, 39.96169 ], [ -75.247807, 39.961765 ], [ -75.247774, 39.961837 ], [ -75.247741, 39.961904 ], [ -75.247707, 39.961977 ], [ -75.247702, 39.962056 ], [ -75.247726, 39.962167 ], [ -75.247762, 39.962225 ], [ -75.247776, 39.962303 ], [ -75.247752, 39.962452 ], [ -75.247715, 39.962662 ], [ -75.247688, 39.962817 ], [ -75.247642, 39.96295 ], [ -75.247604, 39.962992 ], [ -75.247489, 39.963119 ], [ -75.247418, 39.963191 ], [ -75.247399, 39.963249 ], [ -75.247405, 39.963327 ], [ -75.247434, 39.963417 ], [ -75.247479, 39.963528 ], [ -75.247564, 39.963638 ], [ -75.247685, 39.963777 ], [ -75.247778, 39.963876 ], [ -75.247903, 39.963979 ], [ -75.248056, 39.964074 ], [ -75.248615, 39.964352 ], [ -75.248967, 39.964494 ], [ -75.249465, 39.964721 ], [ -75.249728, 39.96485 ], [ -75.249848, 39.964908 ], [ -75.249912, 39.964947 ], [ -75.24999, 39.965001 ], [ -75.250054, 39.965042 ], [ -75.250133, 39.965067 ], [ -75.250221, 39.965076 ], [ -75.250313, 39.965069 ], [ -75.250447, 39.965018 ], [ -75.250606, 39.964948 ], [ -75.250757, 39.964879 ], [ -75.250913, 39.964837 ], [ -75.251048, 39.964833 ], [ -75.251102, 39.964858 ], [ -75.251201, 39.964912 ], [ -75.251283, 39.965003 ], [ -75.251342, 39.965072 ], [ -75.251336, 39.965138 ], [ -75.251341, 39.965192 ], [ -75.251353, 39.965219 ], [ -75.251368, 39.965249 ], [ -75.251427, 39.965302 ], [ -75.251496, 39.965337 ], [ -75.251603, 39.965356 ], [ -75.251707, 39.965346 ], [ -75.251811, 39.96533 ], [ -75.251923, 39.965318 ], [ -75.252094, 39.965305 ], [ -75.252334, 39.96528 ], [ -75.252636, 39.965251 ], [ -75.252843, 39.965244 ], [ -75.252972, 39.965235 ], [ -75.253077, 39.965214 ], [ -75.253222, 39.965184 ], [ -75.253314, 39.965226 ], [ -75.253407, 39.965261 ], [ -75.253582, 39.9653 ], [ -75.253712, 39.965329 ], [ -75.253936, 39.96539 ], [ -75.254046, 39.965402 ], [ -75.25414, 39.965404 ], [ -75.254223, 39.965337 ], [ -75.254302, 39.965273 ], [ -75.254337, 39.965211 ], [ -75.254381, 39.965127 ], [ -75.254456, 39.965046 ], [ -75.254543, 39.964992 ], [ -75.254632, 39.964925 ], [ -75.254738, 39.96485 ], [ -75.254937, 39.964763 ], [ -75.255112, 39.964691 ], [ -75.255267, 39.964655 ], [ -75.255409, 39.96463 ], [ -75.255543, 39.964595 ], [ -75.255686, 39.964546 ], [ -75.255812, 39.964471 ], [ -75.255852, 39.964437 ], [ -75.255892, 39.964372 ], [ -75.255966, 39.964312 ], [ -75.256083, 39.964242 ], [ -75.256193, 39.964155 ], [ -75.256281, 39.964079 ], [ -75.256383, 39.963974 ], [ -75.256586, 39.963802 ], [ -75.256686, 39.963719 ], [ -75.256746, 39.963688 ], [ -75.256816, 39.963677 ], [ -75.2569, 39.963672 ], [ -75.256981, 39.963688 ], [ -75.25711, 39.963719 ], [ -75.257129, 39.963726 ], [ -75.25725, 39.963753 ], [ -75.257319, 39.963767 ], [ -75.257418, 39.963766 ], [ -75.257487, 39.963744 ], [ -75.257543, 39.963705 ], [ -75.257629, 39.963664 ], [ -75.257705, 39.963631 ], [ -75.257788, 39.963602 ], [ -75.257858, 39.963594 ], [ -75.257933, 39.963624 ], [ -75.257994, 39.963677 ], [ -75.258014, 39.963739 ], [ -75.258012, 39.963854 ], [ -75.258014, 39.963993 ], [ -75.257991, 39.964095 ], [ -75.257962, 39.964161 ], [ -75.257944, 39.964236 ], [ -75.257944, 39.964301 ], [ -75.257976, 39.964377 ], [ -75.258007, 39.964399 ], [ -75.258058, 39.964428 ], [ -75.25812, 39.964446 ], [ -75.258189, 39.96445 ], [ -75.258271, 39.964452 ], [ -75.258339, 39.964449 ], [ -75.258407, 39.964452 ], [ -75.25847, 39.964484 ], [ -75.25851, 39.964535 ], [ -75.258547, 39.964618 ], [ -75.25859, 39.964708 ], [ -75.258637, 39.964766 ], [ -75.258684, 39.964846 ], [ -75.258706, 39.964903 ], [ -75.258713, 39.964965 ], [ -75.258715, 39.965059 ], [ -75.258711, 39.96524 ], [ -75.2587, 39.965324 ], [ -75.258709, 39.965378 ], [ -75.258738, 39.965447 ], [ -75.258767, 39.965516 ], [ -75.258797, 39.965571 ], [ -75.258839, 39.965614 ], [ -75.25889, 39.965648 ], [ -75.258974, 39.965676 ], [ -75.259078, 39.965692 ], [ -75.259214, 39.965697 ], [ -75.259333, 39.965698 ], [ -75.2594, 39.965716 ], [ -75.259423, 39.965761 ], [ -75.259427, 39.965813 ], [ -75.259428, 39.965892 ], [ -75.25945, 39.965947 ], [ -75.259551, 39.96601 ], [ -75.259649, 39.966041 ], [ -75.259779, 39.966081 ], [ -75.259909, 39.966115 ], [ -75.260065, 39.966196 ], [ -75.260309, 39.966257 ], [ -75.260491, 39.966313 ], [ -75.260584, 39.966273 ], [ -75.260662, 39.966269 ], [ -75.260751, 39.96628 ], [ -75.260828, 39.96627 ], [ -75.260932, 39.966242 ], [ -75.261026, 39.966198 ], [ -75.261115, 39.966136 ], [ -75.261161, 39.966081 ], [ -75.261215, 39.966026 ], [ -75.261284, 39.965997 ], [ -75.261386, 39.966001 ], [ -75.261445, 39.966031 ], [ -75.261479, 39.966076 ], [ -75.261547, 39.966116 ], [ -75.261661, 39.966159 ], [ -75.261736, 39.966182 ], [ -75.261811, 39.96619 ], [ -75.261893, 39.966171 ], [ -75.262013, 39.966135 ], [ -75.262093, 39.966087 ], [ -75.262104, 39.966054 ], [ -75.262116, 39.966006 ], [ -75.262138, 39.965965 ], [ -75.262153, 39.96595 ], [ -75.262169, 39.965934 ], [ -75.262242, 39.96588 ], [ -75.262265, 39.965858 ], [ -75.262277, 39.96585 ], [ -75.262342, 39.965784 ], [ -75.262382, 39.965739 ], [ -75.262422, 39.965676 ], [ -75.262457, 39.965633 ], [ -75.262512, 39.965611 ], [ -75.262559, 39.965617 ], [ -75.262618, 39.965626 ], [ -75.262679, 39.965638 ], [ -75.262766, 39.965647 ], [ -75.262836, 39.965639 ], [ -75.262919, 39.965609 ], [ -75.262961, 39.965579 ], [ -75.263028, 39.965531 ], [ -75.263092, 39.965486 ], [ -75.263144, 39.965459 ], [ -75.263195, 39.965457 ], [ -75.263251, 39.965474 ], [ -75.263307, 39.965505 ], [ -75.263383, 39.965545 ], [ -75.263467, 39.965577 ], [ -75.26353, 39.965605 ], [ -75.263614, 39.965621 ], [ -75.263696, 39.965614 ], [ -75.26377, 39.965596 ], [ -75.263855, 39.965556 ], [ -75.263928, 39.965529 ], [ -75.26399, 39.965491 ], [ -75.264016, 39.965457 ], [ -75.264056, 39.965421 ], [ -75.264131, 39.965373 ], [ -75.264242, 39.965312 ], [ -75.264373, 39.965242 ], [ -75.264496, 39.965195 ], [ -75.264553, 39.965181 ], [ -75.264644, 39.965179 ], [ -75.264758, 39.965184 ], [ -75.264918, 39.965189 ], [ -75.265058, 39.965192 ], [ -75.265252, 39.965207 ], [ -75.265388, 39.965224 ], [ -75.265448, 39.965257 ], [ -75.265528, 39.96535 ], [ -75.265566, 39.965404 ], [ -75.265598, 39.965448 ], [ -75.265656, 39.965526 ], [ -75.265744, 39.965626 ], [ -75.265806, 39.965716 ], [ -75.265858, 39.965791 ], [ -75.265921, 39.96586 ], [ -75.266048, 39.965926 ], [ -75.266062, 39.96593 ], [ -75.266193, 39.965968 ], [ -75.266313, 39.966004 ], [ -75.266395, 39.966018 ], [ -75.266545, 39.966021 ], [ -75.266707, 39.966021 ], [ -75.266795, 39.966009 ], [ -75.266909, 39.966008 ], [ -75.267024, 39.966025 ], [ -75.2671, 39.96605 ], [ -75.267138, 39.966062 ], [ -75.267214, 39.966092 ], [ -75.267245, 39.966117 ], [ -75.267386, 39.966215 ], [ -75.267475, 39.96626 ], [ -75.267538, 39.966272 ], [ -75.267598, 39.966273 ], [ -75.26767, 39.966298 ], [ -75.267779, 39.966341 ], [ -75.267818, 39.966359 ], [ -75.267909, 39.9664 ], [ -75.268129, 39.966491 ], [ -75.268393, 39.966589 ], [ -75.268461, 39.966618 ], [ -75.268513, 39.966651 ], [ -75.268568, 39.966691 ], [ -75.268701, 39.966796 ], [ -75.268773, 39.96686 ], [ -75.268846, 39.966946 ], [ -75.268916, 39.967041 ], [ -75.269016, 39.967235 ], [ -75.269044, 39.967285 ], [ -75.26908, 39.96733 ], [ -75.269125, 39.967361 ], [ -75.269157, 39.967374 ], [ -75.269206, 39.967381 ], [ -75.269272, 39.967391 ], [ -75.269357, 39.967402 ], [ -75.269445, 39.967388 ], [ -75.269498, 39.967375 ], [ -75.269548, 39.967355 ], [ -75.269614, 39.967331 ], [ -75.26967, 39.967317 ], [ -75.269741, 39.967315 ], [ -75.269801, 39.967326 ], [ -75.269857, 39.967344 ], [ -75.269919, 39.96738 ], [ -75.269961, 39.967425 ], [ -75.270002, 39.967479 ], [ -75.27003, 39.967552 ], [ -75.270054, 39.967653 ], [ -75.270073, 39.967729 ], [ -75.27014, 39.967872 ], [ -75.270192, 39.967977 ], [ -75.270297, 39.968184 ], [ -75.270388, 39.968322 ], [ -75.270402, 39.968357 ], [ -75.270413, 39.968428 ], [ -75.270422, 39.968479 ], [ -75.270447, 39.968528 ], [ -75.270501, 39.968585 ], [ -75.270522, 39.968602 ], [ -75.27057, 39.968638 ], [ -75.270598, 39.96866 ], [ -75.270651, 39.968675 ], [ -75.270718, 39.968671 ], [ -75.270773, 39.968663 ], [ -75.270838, 39.968644 ], [ -75.270913, 39.968619 ], [ -75.270986, 39.968603 ], [ -75.271043, 39.968609 ], [ -75.271109, 39.968619 ], [ -75.271168, 39.968633 ], [ -75.271241, 39.968663 ], [ -75.271327, 39.968691 ], [ -75.271407, 39.968704 ], [ -75.271491, 39.968709 ], [ -75.27159, 39.968715 ], [ -75.271698, 39.968729 ], [ -75.271802, 39.968756 ], [ -75.271863, 39.968805 ], [ -75.271922, 39.968859 ], [ -75.271985, 39.968944 ], [ -75.272024, 39.968985 ], [ -75.272086, 39.969011 ], [ -75.272196, 39.969047 ], [ -75.272344, 39.969094 ], [ -75.272505, 39.969131 ], [ -75.272625, 39.969178 ], [ -75.272726, 39.969217 ], [ -75.272815, 39.969244 ], [ -75.272957, 39.969293 ], [ -75.273054, 39.969305 ], [ -75.273185, 39.969305 ], [ -75.27328, 39.969294 ], [ -75.273415, 39.969281 ], [ -75.273492, 39.969276 ], [ -75.273569, 39.969278 ], [ -75.273681, 39.969287 ], [ -75.27381, 39.969297 ], [ -75.273912, 39.96931 ], [ -75.274012, 39.969315 ], [ -75.27415, 39.969317 ], [ -75.274326, 39.969316 ], [ -75.274488, 39.96931 ], [ -75.274808, 39.969293 ], [ -75.274889, 39.969287 ], [ -75.275027, 39.969289 ], [ -75.275084, 39.969297 ], [ -75.275197, 39.969325 ], [ -75.275266, 39.969364 ], [ -75.275322, 39.969416 ], [ -75.275362, 39.969503 ], [ -75.275394, 39.969575 ], [ -75.275456, 39.969778 ], [ -75.275494, 39.969929 ], [ -75.275567, 39.970125 ], [ -75.275606, 39.970211 ], [ -75.275652, 39.970259 ], [ -75.275705, 39.970293 ], [ -75.275819, 39.97031 ], [ -75.276005, 39.970312 ], [ -75.276186, 39.970324 ], [ -75.276245, 39.97033 ], [ -75.276277, 39.970342 ], [ -75.276302, 39.970351 ], [ -75.27637, 39.970388 ], [ -75.276411, 39.970416 ], [ -75.276438, 39.970468 ], [ -75.276467, 39.97052 ], [ -75.276508, 39.97059 ], [ -75.276553, 39.970672 ], [ -75.276611, 39.970776 ], [ -75.27664, 39.970828 ], [ -75.276656, 39.970862 ], [ -75.276667, 39.970907 ], [ -75.276674, 39.970945 ], [ -75.276662, 39.970983 ], [ -75.276636, 39.971016 ], [ -75.276587, 39.971056 ], [ -75.276528, 39.971095 ], [ -75.276471, 39.971135 ], [ -75.276485, 39.971178 ], [ -75.276524, 39.971224 ], [ -75.276583, 39.971262 ], [ -75.276689, 39.971253 ], [ -75.27676, 39.971244 ], [ -75.276825, 39.971215 ], [ -75.276896, 39.971175 ], [ -75.277073, 39.971105 ], [ -75.277136, 39.971089 ], [ -75.277198, 39.971082 ], [ -75.277266, 39.971082 ], [ -75.277338, 39.971083 ], [ -75.277421, 39.971097 ], [ -75.277491, 39.97111 ], [ -75.27754, 39.971127 ], [ -75.277576, 39.97115 ], [ -75.277611, 39.971175 ], [ -75.277656, 39.971209 ], [ -75.277687, 39.971247 ], [ -75.277704, 39.971284 ], [ -75.277713, 39.971321 ], [ -75.277688, 39.971345 ], [ -75.277646, 39.971362 ], [ -75.277596, 39.971377 ], [ -75.277551, 39.971386 ], [ -75.277523, 39.971401 ], [ -75.277509, 39.971424 ], [ -75.277503, 39.971452 ], [ -75.277505, 39.971487 ], [ -75.277513, 39.971518 ], [ -75.277529, 39.971555 ], [ -75.277553, 39.971583 ], [ -75.277591, 39.971615 ], [ -75.277641, 39.971643 ], [ -75.277676, 39.971659 ], [ -75.277765, 39.971678 ], [ -75.277886, 39.971693 ], [ -75.277967, 39.971714 ], [ -75.278018, 39.971751 ], [ -75.278297, 39.971928 ], [ -75.278352, 39.972013 ], [ -75.278449, 39.972106 ], [ -75.278537, 39.972185 ], [ -75.278609, 39.972263 ], [ -75.278657, 39.972332 ], [ -75.278697, 39.972414 ], [ -75.278703, 39.972442 ], [ -75.278724, 39.97253 ], [ -75.278759, 39.972634 ], [ -75.278777, 39.972692 ], [ -75.27878, 39.972745 ], [ -75.278784, 39.972841 ], [ -75.278795, 39.97295 ], [ -75.27881, 39.973051 ], [ -75.27883, 39.973162 ], [ -75.278859, 39.973247 ], [ -75.278916, 39.973315 ], [ -75.278952, 39.973359 ], [ -75.278971, 39.973446 ], [ -75.278998, 39.973526 ], [ -75.279046, 39.973618 ], [ -75.279081, 39.973691 ], [ -75.279109, 39.973812 ], [ -75.279123, 39.973913 ], [ -75.27917, 39.973986 ], [ -75.279242, 39.974031 ], [ -75.279359, 39.974072 ], [ -75.279465, 39.974122 ], [ -75.2796, 39.974185 ], [ -75.279805, 39.97432 ], [ -75.279955, 39.974424 ], [ -75.280027, 39.974502 ], [ -75.280044, 39.97454 ], [ -75.280085, 39.974624 ], [ -75.28013, 39.974735 ], [ -75.280192, 39.974835 ], [ -75.28023, 39.974888 ], [ -75.280266, 39.974964 ] ] ] } }
]
}
